name,house_number,road,postcode,locality,region,country,country_code
braum's ice cream & dairy stores,550,e 47th st s,,wichita,ks,,
holiday inn express & suites bradley airport,600,spring street,06096,windsor locks,connecticut,spojené státy,
ter horst van geel,14,hoofdstraat,3901 am,"veenendaal, nederland",,,
hotel rappen am muensterplatz,13,muensterplatz,79098,freiburg im breisgau,baden-württemberg,germany,
torah spot,374,ridgewood ave,10312,staten island,ny,,
,1105,north glebe road,22201,arlington,virginia,united states,
streamliner 16th,1616,east polk st,85006,phoenix,az,us,us
wilson public library,910,meridian ave.,69130,cozad,ne,united states,us
art center of corpus christi,100,north shoreline,78401,corpus christi,tx,us,us
,2,stanisława konarskiego,,siedlce,,,
landratsamt göppingen,6,lorcher str.,73033,göppingen,,,
,1208,north main street,24060,blacksburg,virginia,spojené státy,
,4270,n harlem,60706,norridge,il,us,us
le tre vaselle resort & spa,48,via giuseppe garibaldi,06089,torgiano,,ý,
alwell,85,cleaveland road,94523,pleasant hill,ca,,
chase bank,3241,lakeshore avenue,94610,oakland,ca,,
the state theatre,719,congress ave,78701,austin,tx,,
,4201,wilson boulevard,22203,arlington,virginia,united states,
peru baptist church,98,main street,04290,peru,,united states,
,602,w 6th street,81054,las animas,co,,
st. andrew methodist,9203,s university blvd,80126,highlands ranch,co,usa,
haus bergland,4,trattenweg,9551,bodensdorf,,austria,
,15,bahnhofstr.,09544,neuhausen,,,
fairfield inn & suites williamsport,104,maynard street,17701,williamsport,pennsylvania:,hoa kỳ,
new paltz golf course,215,huguenot street,12561,new paltz,ny,,
hawaii national bank,3450,waialae avenue,96816,honolulu,hi,,
giant eagle,1955,e maple street,44720,north canton,oh,,
"hilton garden inn denver union station, co",1999,chestnut place,80202,denver,colorado,united states,
,2526,w 10th st,80634,greeley,co,,
hotel lilly,333,viale degli etruschi,57034,campo nell'elba,tuscany,italy,
south oak jeep dodge ram chrysler,4550,lincoln hwy,60443,matteson,il,us,us
wolfe legal services \/ attorney george wolfe,3212,north high street,43202,columbus,oh,,
,4650,santa fe st,92109,"san diego,",ca,,
,128,brawley school rd,28117,mooresville,nc,,
,700,n. king street,19801,wilmington,delaware,united states,
,15,via pastrengo,,milano,,,
,100,keienbergweg,1101 gh,amsterdam,nh,nl,nl
barceló imagine,32,calle de agustín de foxa,28036,มาดริด,,สเปน,
blossom chevrolet,1850,shadeland avenue,46219,indianapolis,in,us,us
green angel cleaning,7547,ravensridge road,63119,st louis,missouri,us,us
hotel igea,87,via ospedale,35100,pádua,vêneto,itália,
,13,isla graciosa,28703,san sebastián de los reyes,comunidad de madrid,es,es
,267,schleißheimer straße,80809,munich,,de,de
,1705,east central texas exp,76541,killeen,tx,,
nationale nederlanden,16,parque empresarial arroyo de la vega.,28108,alcobendas,madrid,es,es
,,,95605,west sacramento,california,,
petsmart,8095,e broad st,43068,reynoldsburg,oh,us,us
,340,north 3rd street,85004,phoenix,arizona,estados unidos,
,5,benzstr.,97082,würzburg,,,
,3073,s. horseshoe drive,,naples,florida,สเปน,
"l. patrick mulligan & associates, llc",28,north wilkinson street,45402,dayton,oh,,
hollywood highland hotel and hostel,7038,hollywood boulevard,90028,los angeles,kalifornia,stany zjednoczone,
dorfsaal osterbruch,25,dorfstraße,21762,osterbruch,,deutschland,
,80,bradford st,l4n 6s7,barrie,on,canada,
aare seeland mobil ag,12,grubenstrasse,4900,langenthal,,,
,123,s court st,35630,florence,al,,
holiday inn express cincinnati north - monroe,120,senate drive,45050,monroe,ohio,united states,
,37,im gewerbepark,91093,heßdorf,,,
,161,rue de paris,93000,bobigny,,,
the colonial theatre,227,bridge st,19460,phoenixville,pa,united states,us
mountain hut tschötsch,70,compatsch,39040,seiser alm,,,
,100,choccolocco st.,36203,oxford,al,united states of america,
,70,jakoberstraße,86153,augsburg,,de,de
sixt,140,pragstr.,70376,stuttgart,baden-wurttemberg,germany,
netto mit dem scottie,7,leuthener str.,03050,cottbus,,,
elite hotel savoy,62,norra vallgatan,211 22,malmö,,sverige,
oaks automotive llc,1065,ohio pike,45245,cincinnati,oh,,
,1,voestalpine-straße,4020,linz,oberösterreich,österreich,
mersen deutschland eggolsheim gmbh,12,in der bug,91330,eggolsheim,,germany,
,513,w. broad street,30601,athens,ga,,
,58,rue de saint-jean,1203,genève,,suisse,
rotunda pharmacy,7,triq il-kungress ewkaristiku,,il-mosta,,mt,mt
musee d’orsay,1,rue de la légion d'honneur,75007,paris,,france,
,2298,market st.,94114,san francisco,ca,,
,7,vikingsgatan,41104,göteborg,,,
best western annesley house hotel,6,newmarket road,nr2 2la,norwich,england,united kingdom,
shop for mens womens & kids clothing in roseville | gap store locator,2,folsom st,94105,san francisco,ca,,
,10,harley st,w1g 9pf,", london",london,united kingdom,
victoria estates apartment homes,1402,s marion road,57106,sioux falls,sd,us,us
,16,via quattro fontane,30126,venecia,véneto,italia,
,1700,sw 3rd avenue,33129,miami,fl,,
,,127 street,10027,new york,ny,,
ciudad prado hotel,2470,arturo m. bas,5016,córdoba,córdoba,argentina,
bend goodwill,61315,s. hwy 97,97702,bend,or,united states,
,1630,geary boulevard,94115,san francisco,ca,usa,
,110,southampton row,wc1b 4bl,london,london,united kingdom,
air liquide campus innovation paris,1,chemin de la porte des loges,78350,les loges-en-josas,,france,
mary brown's,632,topsail rd,a1e 2c9,st. john's,nl,,
kfc,260,belle hill road,,elkton,md,,
sandman hotel cranbrook,405,cranbrook st n,v1c 3r5,cranbrook,,canada,
albergo al sole,33,via collegio,31011,asolo,venetien,it,it
firestone complete auto care,2620,s voss road,77057,houston,tx,,
fulton bank,3545,dam neck road,23453,virginia beach,va,,
,objekt 64,iz nö-süd straße 3,2355,wiener neudorf,,at,at
,2162,market street,,san francisco,monza e brianza,united states,
a&o bremen hauptbahnhof,20a,friedrich-rauers-straße,,bremen,bremen,германия,
,97,flandernstr.,72458,albstadt,,,
klinikum osnabrück,1,am finkenhügel,49074,osnabrück,województwo pomorskie,,
,4,place de la république,71490,couches,,france,
twin state ford,8,memorial drive,05819,st johnsbury,vt,us,us
the heights theater,339,w. 19th street,77008,houston,texas,us,us
warwick melrose hotel,3015,oak lawn avenue,75219,dallas,tx,us,us
,1001,bannock st.,80204,denver,co,us,us
courtyard by marriott west palm beach,600,northpoint parkway,33407,west palm beach,florida,united states,
,63a,drottninggatan,,norrköping,,,
,100,west reno ave,73102,oklahoma city,ok,united states of america,
,3,harmshof,29646,bispingen,,,
"żabka, batorego 19",19,batorego,28-100,busko-zdrój,,,
,5501,n may ave,73112,oklahoma city,ok,,
los leones interclinica,98,almirante latorre,2290000,quillota,vs,cl,cl
achat premium neustadt / weinstraße,2,exterstrasse,67433,neustadt an der weinstrasse,rhineland-palatinate,germany,
,20-21,main street,p17 f592,kinsale,cork,ie,ie
petco - boulder,2480,arapahoe ave,80302,boulder,,us,us
,60,3 maja,14-400,pasłęk,,,
villa casati stampa,5,piazza soncino,,cinisello balsamo,,,
sharp memorial hospital,7901,frost st,92123,san diego,california,,
,1855,north state street,61008,belvidere,illinois,,
,75,nieuwe binnenweg,3014 ge,rotterdam,,nl,nl
"mandarin oriental, miami",500,brickell key drive,33131,miami,florida,estados unidos,
,1,kolejowa,46-040,ozimek,opolskie,,
dgh offensen,10,bramburger str.,37170,uslar,,,
"mcdonald's, andre freyskorn-straße 2",2,andre freyskorn-straße,3910,zwettl,,,
dr. klaus platzer,13,bahnhofstraße,8570,voitsberg,,,
,12410,east 136th avenue,80601,brighton,colorado,,
douglass park,1401,s sacramento drive,60623,chicago,il,usa,
hotel schmied von kochel,6,schlehdorfer str.,82431,kochel am see,,,
discovery,4,hornbergstr.,70188,stuttgart,baden-württemberg,tyskland,
hotel mioni royal san,10,p.le stazione,35036,montegrotto terme,pd,italia,
,161,arthurs point road,9371,queenstown,,new zealand,
holiday inn & suites nashville down,415,4th avenue south,37201,nashville,tn,us,us
hyatt regency seattle,808,howell street,98101,seattle,washington,usa,
gallery nasty alice,10,sint antoniusstraat,5616 rt,eindhoven,,nl,nl
,720,main st,94553,martinez,ca,,
,1,siegfried-meister-straße,86899,landsberg am lech,bayern,deutschland,
,33,aleja rzeczypospolitej,80-001,gdańsk,,polska,
,5,koningstraat,2011 tb,haarlem,,netherlands,
manitoba vs. alberta · 05:00 pm   ·  cn centre,,,--,prince george,bc,ca,ca
storyville,8,museokatu,00100,helsinki,,,
hampton inn & suites cleveland-airport/middleburg heights,7074,engle road,44130,middleburg heights,ohio,united states,
bellwood animal hospital,1869,north bell school road,61107,rockford,illinois,us,us
deliverance church of christ,500,jadeleaf avenue,20743,capitol heights,md,,
,7701,airline drive,70003,metairie,la,,
,15,cours jean jaurès,71600,paray-le-monial,,france,
,3000,n sam houston parkway e,77032,houston,texas,,
hotel cosmopolite,141,albert i laan,8620,nieuwpoort,,belgien,
,900,s figueroa street,,downtown los angeles,,united states,
,7,viktoriastr.,66450,bexbach,saarland,germany,
hampton inn & suites dallas downtown,1700,commerce street,75201,dallas,texas,united states,
,2,rue très-cloîtres,38000,grenoble,,,
die glocke (kleiner saal),6-8,domsheide,28195,bremen,,germany,
,5,plaza santa brígida,47003,valladolid,valladolid,,
north high brewing,250,s. state st.,43081,westerville,oh,united states,
schützi,15,schützenmattweg,4600,olten,so,,
landhotel traube,9b,kapitän-romer-straße,78465,konstanz,,tyskland,
,13,isla graciosa,28703,san sebastián de los reyes,comunidad de madrid,españa,
,220,lygon street,3053,melbourne,victoria,australia,
,14,cannerweg,6213 bg,maastricht,,,
dierenpaleis,112,smaragdplein,3523ed,utrecht,,,
mcdonald's,101,e centerton blvd,72719,centerton,ar,us,us
,65,hans-neupert-straße,38820,halberstadt,,de,de
"bellaflora bruck\/mur, bruckerstraße 98",98,bruckerstraße,8600,bruck an der mur,,,
audioprothésiste - optical center challans,80,rue carnot,85300,challans,,france,
advance financial,4270,fort henry drive,37663,kingsport,tn,,
,2,avenue charles de gaulle,78150,le chesnay,,france,
,32,wächterstraße,04107,leipzig,saxony,germany,
la croix verte,1,grand rue,1267,nyon,,suisse,
,18a,bohaterów warszawy,72-500,miedzyzdroje,,polska,
anaheim—convention center,800,w katella ave,92802,anaheim,ca,reino unido,
hotel moawirt,1,moadörfl,5602,wagrain,salzburg,austria,
radiant waxing pearl district,923,nw glisan street,97209,portland,or,us,us
scapino,14,de dellen,9231eb,"surhuisterveen, nederland",,,
"heywood house hotel, bw signature collection by best western",11,fenwick street,l2 7ls,ลิเวอร์พูล,,สหราชอาณาจักร,
mercure chambery centre,183,place de la gare,73000,chambery,,francia,
citizenm boston north station hotel,70,causeway street,02114,boston,massachusetts,estados unidos,
,7500,montpelier road,20723,laurel,md,,
uhren & schmuck plakolm,31,werdenbergerstraße,6700,bludenz,,at,at
,401,broad street,18337,milford,pa,,
,38,dorpsstraat,8181 hs,heerde,,,
,1,grossherzog-leopold-platz,79359,riegel am kaiserstuhl,,,
,3823,thousand oaks dr,78217,san antonio,tx,us,us
hotel welp,227,natruper str.,49090,osnabrück,niedersachsen,deutschland,
,556,village square lane,80108,"castle pines,",co,,
schooner wharf bar,202,william st,33040,key west,fl,us,us
,,,,záhorská ves,bratislavský kraj,,
,10,steinmüllerallee,51643,gummersbach,,,
"aronoff center for the arts, jarson-kaplan theater",650,walnut street,45202,cincinnati,ohio,,
ohio stadium,411,woody hayes dr.,43210,columbus,oh,us,us
the benson hotel,309,sw broadway,97205,"portland, or",,,
atelier henry simon – les rimajures,75,boulevard georges pompidou,85800,saint-gilles-croix-de-vie,,,
,6,piazzale d'annunzio gabriele,33100,udine,friuli venezia giulia,,
los angeles leadership academy,2670,griffin ave.,90031,los angeles,ca,us,us
oakshire public house,207,madison st,97402,eugene,oregon,united states,
,31761,camino capistrano,92675,san juan capistrano,ca,,
,130,w lancaster ave,19003,ardmore,pennsylvania,united states,
,,,g1r 3x4,québec,qc,canada,
,333,ludlow street,06902,stamford,ct,us,us
rossmann drogerie-markt kuhlenkamp 2 b         in 24217 schönberg,2 b,kuhlenkamp,24217,schönberg,,de,de
,1,hofgut imsbach,,theley,,,
howard johnson evansville east,1101,north green river road,47715,evansville,indiana,estados unidos,
,5,rue paul vaillant couturier,94700,maisons-alfort,val-de-marne,,
,69,zähringerstrasse,76133,karlsruhe,,de,de
ibis styles liverpool centre dale street - cavern quarter,67,dale street,l2 2hj,liverpool,englanti,yhdistynyt kuningaskunta,
le forum,95,boulevard de l'oise,95490,vaureal,île-de-france,,
schmidt karl-heinz glaserei,32,große paaschburg,25524,itzehoe,,,
,910,kapahulu ave,96816,honolulu,hawaii,,
calverton national cemetery,210,princeton boulevard,11933,calverton,,united states,
,420,the east mall,m9b 3z9,toronto,on,ca,ca
,,,224 78,lund,,se,se
band on the wall,25,swan street,m4 5jz,manchester,,,
,,,10115,berlin,,germany,
millestgården eco lodge åre ab,,,837 71,duved,,sverige,
finkenkrug- die kneipe im duisburger univiertel,71,sternbuschweg,47057,duisburg,,deutschland,
,409,w henderson street,76033,cleburne,texas,,
public storage - everett - 140 broadway,140,broadway,02149,everett,ma,us,us
bmö tankstelle bremen,41,hans bredow str.,28307,bremen,,de,de
schlossberghalle,33,wörthstraße,78564,wehingen,,deutschland,
,7170,woodmont avenue,20815,bethesda,md,us,us
motel l alvsjo,209,gotalandsvagen,125 44,stockholm,,zweden,
,151,crailoseweg,1261 aa,blaricum,,netherlands,
clear choice natural healthcare,1953,south blvd w,48098,troy,mi,,
sacandaga outdoor center,4162,rockwell street,12835,hadley,ny,us,us
buc-ee's,7001,russell parkway,31030,fort valley,ga,,
simkus recreation center,849,w lies road,60188,carol stream,il,united states,
,22,hauptstraße,69117,heidelberg,,,
home2 suites by hilton columbus dublin,5000,upper metro place,43017,dublin,ohio,usa,
,50,urachtalstraße,78147,vöhrenbach,,,
wojewódzki szpital zespolony w kielcach,45,grunwaldzka,25-736,kielce,swietokrzyskie,,
gallerie d’italia – napoli,185,via toledo,80132,napoli,,italia,
,8,skarphällsgatan,,visby,,,
dakota glasgow,179,west regent street,g2 4dp,glasgow,escocia,reino unido,
kruidvat,26,singel,3861 ae,nijkerk,,,
springhill suites pittsburgh washington,16,trinity point drive,15301,washington,pennsylvania,usa,
,6,schulstr.,29386,hankensbüttel,,,
,713,s washington ave,55415,minneapolis,mn,,
muffathalle,4,zellstr.,81667,münchen,bayern,deutschland,
,2,thornburyplatz,31167,bockenem,niedersachsen,de,de
,7245,s 76th st,53132,franklin,wi,,
,717,spence lane,37217,nashville,tennessee,united states,
kreisverband tecklenburger land e.v.,27,groner allee,49477,ibbenbüren,,,
,2110,blue ridge road,27607,raleigh,nc,united states of america,
dierenboetiek de,135,schrans,8932nd,leeuwarden,,,
bio-hofladen honhardt - honhardter demeterhöfe gbr,15,ostweg,74586,frankenhardt,,,
mandalay bay resort & casino,3950,las vegas blvd s,89119,las vegas,nv,united states,
,10,marktstr.,88677,markdorf,,,
talbert's ice & beverage service,5234,river road,20816,bethesda,md,,
,118,boschetsrieder straße,81379,münchen,,,
,2701,university avenue,53705,madison,wisconsin,,
quai des arts,774,bd perron,,carleton-sur-mer,qc,canada,
,30,schneidergasse,4001,"basel, altstadt grossbasel",,,
stephen d burcham cpa,522,1st street,25701,huntington,wv,us,us
,615,whitestown road,16001,butler,pennsylvania,,
,146,bockelstr.,70619,stuttgart,de-bw,de,de
pension störtebeker,1,westbahnstr.,18586,sellin,mecklenburg-vorpommern,deutschland,
hotel san cayetano,16,calle sevilla,29400,ronda,,spania,
,57,freiberger str.,"74321,","bietigheim-bissingen,",,germany,
tacoma dome,2727,east d street,98421,tacoma,wa,us,us
kyriad,384,avenue de verdun,36000,chateauroux,,france,
,6,rue de rome,1700,freiburg,fr,united states of america,
,14,zur hoppecke,34508,willingen,,germany,
,2014,aurora blvd,s4v 3t7,regina,sk,,
wbw solicitors and chartered financial planners,17,high st,,exmouth,,gb,gb
,44,westerd,7943gl,meppel,drenthe,netherlands,
,7,new road,bn1 1uf,brighton,england,united kingdom,
,1850,ogden avenue,60515,downers grove,illinois,,
granite subaru,193,lowell rd,03051,hudson,new hampshire,,
hotel super 8 by wyndham branson/andy williams theatre,2490,green mountain dr,65616,branson,,,
,325,spring st,95959,nevada city,ca,united states of america,
"siófok, hotel azúr",2/c,erkel ferenc u.,8600,siófok,,magyarország,
budget,899,north loop west,77008,houston,texas,estados unidos,
sam&ko kinderopvang kinderdagverblijven peuterspeelzalen bso gastouderopvang,3,brinkgreverweg,7413aa,deventer,,,
hotel diplomatic,42,via cernaia,10122,turin,,italie,
,30,bd de bonne nouvelle,75010,paris,,france,
one republic fitness,757,w san carlos street,95126,san jose,ca,,
,17771,santiago blvd,92861,villa park,ca,us,us
,57,cl reyes católicos,03003,alicante,alicante/alacant,es,es
texas trust cu theatre,1001,performance place,75050,grand prairie,,united states,
,3515,washington blvd,22201,arlington,virginia,קנדה,
fuego sports bar and club,140,south murphy avenue,,sunnyvale,ca,us,us
,45,school street,02108,boston,ma,,
,11611,bernardo plaza ct,92128,san diego,california,estados unidos,
,55,frome street,5000,阿德莱德,南澳州,澳大利亚,
,115,oststr.,40210,düsseldorf,düsseldorf,de,de
,950,s. cherry st.,80246,denver,colorado,,
the dana on mission bay,1710,west mission bay drive,,san diego,kalifornien,usa,
nyu skirball center for the performing arts,566,,10012,new york,ny,united states,
,176,yonge street,,toronto,rhode island,,
,21,schothorsterlaan,3822 na,amersfoort,,nl,nl
memphis university school,6191,park avenue,38119,memphis,tn,,
,46,maria theresien strasse,6020,innsbruck,tirol,áo,
the lodge at jackson hole,80,scott lane,83002,jackson,wyoming,usa,
‪jupiter lisboa hotel‬,46,avenida da republica,1050-195,لشبونة,,البرتغال,
,7,via dei fossi,,cavour,,,
,13,uniwersytecka,40-007,katowice,,polska,
de balie,10,kleine gartmanplantsoen,1017 rr,amsterdam,,netherlands,
,14,авангардная улица,,санкт-петербург,,,
,1,dortmunder str.,28199,bremen,,de,de
,1,rathausgasse,34576,homberg,hessen,de,de
emmaüs,39,rue de la combe,1037,etagnières,,ch,ch
teatr im. andreasa gryphiusa,8,rynek,,głogów,,,
holiday inn express richmond e - midlothian trnpke,8710,midlothian turnpike,23235,north chesterfield,virginia,united states,
ryan bisher ryan & simons,4323,nw 63rd st,73116,oklahoma city,ok,,
melanchthon-gemeindezentrum,124,osterholzer heerstr.,28325,bremen,,,
,20816,n 20th ave,85027,phoenix,az,usa,
marrol's boutique hotel,4,tobrucka,,bratislava,bratislava region,slovakia,
honeymoon room - services sky lux hotel & spa,93d,prospekt mira,423827,naberezhnye chelny,republic of tatarstan,russia,
jugendpension müllauerhof,357,vorderglemm,5753,saalbach,,,
comtat sant jordi,2,travessera ginebro,17250,platja d'aro,,spanje,
,11,sandy's row,,london,,,
panda express - turner mccall blvd & hicks dr,1421,turner mccall blvd,30161,rome,georgia,us,us
,1122,main street,94559,napa,ca,united states,
milwaukee dental group,5542,west fond du lac avenue,53216,milwaukee,wi,us,us
,400,8th st,24954,marlinton,wv,,
,18,jalan sultan nazrin shah,30250,ipoh,perak,malaysia,
,8,mient,1811 nc,alkmaar,,netherlands,
renton community center,1715,maple valley hwy,,renton,,,
agip eni tankstelle münchen - innsbrucker ring 149,149,innsbrucker ring,81669,münchen,,de,de
,146,heidestraße,60385,bornheim,frankfurt am main,,
,1560,e. southlake blvd.,76092,southlake,,,
,2,place de la république,63230,pontgibaud,,france,
,12,hoher weg,6020,innsbruck,tirol,austria,
,2109,s. state st.,60616,chicago,il,united states of america,
"suncoast park hotel anaheim resort, tapestry collection by hilton",1640,south clementine st,92802,anaheim,california,united states,
,1535,commercial way,95065,santa-cruz-county,california,united states,
burlington marriott hotel,1,burlington mall rd.,01803,burlington,ma,united states,
blind pig,208,south 1st street,48104,ann arbor,michigan,usa,
gemeindekindergarten sausewind,8,schulstraße,85395,attenkirchen,bayern,deutschland,
,4,madlower chaussee,03051,cottbus,,,
,6,3 maja,85-016,bydgoszcz,,pl,pl
hotel the neufchatel,34,rue de neufchatel,1060,brussels,brussels,belgium,
hotel bahia de alcudia and spa,6,av. de la playa,07410,puerto de alcudia,,españa,
ramada by wyndham des moines tropics resort & conference ctr,5000,merle hay road,50322,des moines,iowa,yhdysvallat,
thai herbs restaraunt,7779,sw capitol hwy,97219,portland,or,us,us
,500,fayetteville street,27601,raleigh,carolina del norte,estados unidos,
,999,oakmont plaza drive,60559,westmont,il,,
chocolate church arts center,804,washington st,04530,bath,me,united states,
citta' del teatro,656,via tosco romagnola,56021,cascina,,italia,
wylie inn and conference ctr,295,hale street,1915,beverly,ma,us,us
,,,08525,hopewell,nj,us,us
fenster kühn,7,lödlaer chaussee,04617,lödla,,,
la academia de estrellas,4680,west kiest boulevard,75236,dallas,zürich,,
la quinta inn by wyndham orlando airport west,7931,daetwyler drive,32812,orlando,fl,united states,
prirodoslovni muzej rijeka,1,lorenzov prolaz,51000,rijeka,,,
iceberg heating & cooling,111,n telegraph rd,48162,monroe,mi,usa,
pizzeria la sila,10,am markt,65795,hattersheim am main,,,
sky ridge medical center,10101,ridgegate pkwy,80124,lone tree,co,,
intercontinental edinburgh the george,19-21,george street,eh2 2pb,edinburgh,scotland,united kingdom,
viceroy santa monica,1819,ocean avenue,90401,santa monica,ca,us,us
mtc-club,10,zülpicher str.,50674,köln,,,
,112,saxkey rd,23937,drakes branch,va,us,us
,925,25th street northwest,20037,washington,dc,us,us
summit hotel,,via flacca km 23,04024,gaeta,,italia,
,14,hebbelstr.,94315,straubing,,,
duncanville education plaza,710,s. cedar ridge drive,75137,duncanville,,united states,
,3,feldstraße,17033,neubrandenburg,,,
hilton garden inn new york/west 35th street,63,west 35th street,10001,new york city,new york,united states,
,1,changiweg,1437 ep,"rozenburg, nl",,,
the chapel,777,valencia street,94110,san francisco,ca,us,us
,107,greenwich st,07823,belvidere,nj,,
budget lodge eugene,1291,highway 99n,97402,eugene,oregon,mỹ,
similaun,15,marzellweg,6458,vent,,,
,180,boulevard de l'europe,64230,lescar,,france,
"joinery hotel pittsburgh, curio collection by hilton",453,boulevard of the allies,15219,pittsburgh,pennsylvania,usa,
la guitarra hostel,12,grodzka,80-841,gdansk,pomorskie,ba lan,
,40,hütten,5771,leogang,,at,at
,8920,moreland st,43065,powell,ohio,,
aurora cellars,7788,east horn road,49653,lake leelanau,mi,us,us
hotel greenline schützenhof,47,schützenhofstr.,26441,jever,,,
,293a,waller heerstraße,28219,bremen,,de,de
comey & shepherd realtors,1440,main st,45205,cincinnati,oh,,
"uwm garland hall, room 104",2441,east hartford avenue,53211,milwaukee,wi,united states,
,30,via roma,33030,campoformido,friuli venezia giulia,,
toronto don valley hotel and suites,175,wynford drive,m3c 1j3,toronto,ontario,kanada,
,69,victoria road,8005,camps bay,,south africa,
element arundel mills bwi airport,7522,teague road,21076,hanover,maryland,états-unis,
restaurant en hotel hoog holten,7,forthaarsweg,7451 js,holten,,nederland,
,26,hirschhornstraße,74889,sinsheim,sinsheim,germany,
hotel finn,20,dalbyvagen,224 60,lund,,sverige,
,2,wendenhof,19055,schwerin,,de,de
,462,rue benjamin delessert,,moissy-cramayel,,,
grandpre’s,834,n rampart st,70116,new orleans,la,united states,
super 8 by wyndham abilene south,4397,sayles boulevard,79605,abilene,texas,united states,
,4226,university way ne,98105,seattle,wa,us,us
the happy wombat,575,hunter street,2302,newcastle west,nsw,au,au
,201,washington st sw,30303,atlanta,ga,,
,605,sylvan avenue,95350,modesto,california,,
eden hotel amsterdam,144,amstel,1017 ae,amsterdam,,the netherlands,
,701,sw broadway,97205,portland,or,,
kindercare,5812,darrow rd,k0a 1a0,hudson,oh,us,us
strasburg rail road,301,gap road,17572,ronks,pa,,
teatro comunale traiano,2,corso centocelle,,civitavecchia,lazio,it,it
,5701,n california ave,60659,chicago,南澳州,us,us
,15,leonhardstraße,8010,graz,styria,austria,
,1,schleinufer,39104,magdeburg,,,
,57,foveaux street,2010,sydney,new south wales,australia,
,11,mainau,96215,lichtenfels,,de,de
amc patton creek 15,4450,creekside avenue,35244,"hoover, alabama",,,
ox & anchor,877,palm st,93401,san luis obispo,ca,united states,
,184,rua dos fanqueiros,"1100-232,","lissabon,",,portugali,
,49,max-stromeyer-straße,78467,konstanz,,,
reparatur-werkstätte hammerschmid gmbh & co. kg,44,eberstettener str.,85276,pfaffenhofen a. d. ilm,,deutschland,
hopsquad brewing co,2307,kramer lane,78758,austin,tx,united states,
fahrschule gödde mobilitätscoaching gmbh,1,grabenweg,59602,rüthen,nrw,deutschland,
,403,e main st,17036,hummelstown,pa,,
,2249,w superior street,60612,chicago,il,,
gran hotel miramar gl,22,paseo reding,29016,málaga,andalucía,españa,
,15,permoserstraße,04318,leipzig,,,
walgreens,950,e kenosha st,74012,broken arrow,ok,us,us
,2,rue des lilas,92140,clamart,,france,
holly meadows golf and banquet center,4855,capac road,48014,capac,,united states,
,362,c. padre billini,.,santo domingo,distrito nacional,república dominicana,
,8880,e. via linda,85258,scottsdale,az,united states,
,80,scott lane,83002,jackson,wyoming,amerika serikat,
subway,1902,w francis ave,,spokane,wa,,
"fiskars brands, inc.",7800,discovery drive,53562,middleton,wi,,
carl's jr. 1102139,25300,sw 95th ave,97070,wilsonville,or,us,us
morrow family health center,76,s main st,43338,mount gilead,oh,,
,3014,washington square,78705,austin,tx,,
j & l foreign auto center,3138,cass avenue,48201,detroit,mi,us,us
ralf große metallbau,34,hinterste binde,37318,uder,,de,de
vitaminstore haarlem,16,barteljorisstraat,2011 rb,haarlem,,đức,
,2727,east d st,98421,tacoma,wa,united states of america,
aqua piscines,1953,avenue d'argelès sur mer,66100,perpignan,,fr,fr
the omni dallas,555,s lamar st,75202,dallas,tx,us,us
the alcove cantina,119,e main st,78664,round rock,tx,united states,
jw marriott los angeles l.a. live,900,west olympic boulevard,90015,los angeles,california,usa,
,12,langstraat,4196jb,tricht,tricht,nl,nl
springhill suites by marriott morgantown,1910,hunter's way,26505,morgantown,virginia (batı),abd,
sanny nails & beauty ab,6,clevevägen,,skoghall,,,
dr. christian ziegener,9,thielenstraße,14554,seddiner see,,deutschland,
plus florence,15,via santa caterina d'alessandria,50129,florence,tuscany,italy,
voco strasbourg centre the garden,9,rue des magasins,67000,straßburg,elsass,fr,fr
,1 14,mcleod ave,t7x 3x3,"spruce grove,",alberta,đức,
,420 424,union street,ab10 1tq,aberdeen,,,
stefan laschinger gmbh meisterbetrieb für dach-wand- und abdichtungstechnik,48,schwickingsfeld,46282,dorsten,,deutschland,
plainfield-guilford township public library,1120,stafford road,46168,"plainfield,",in,,
red roof inn berea,196,prince royal drive,40403,berea,kentucky,united states,
knollmeyer fleischerei und partyservice,31,gretescher weg,49084,osnabrück,niedersachsen,,
the fillmore silver spring,8656,colesville road,20910,silver spring,md,us,us
,384,main st,t0k 0k0,cardston,ab,canada,
,36,wiesenstraße,45473,mülheim an der ruhr,nw,de,de
ottawa embassy hotel & suites,25,cartier street,k2p 1j2,ottawa,ontario,kanada,
beachcomber motel,7500,coastal highway,21842,ocean city,maryland,united states,
,3,obere dorfstrasse,6533,fiss,tirol,austria,
,146,via emerico amari,90132,palermo,sicilia,italia,
,3513,east race ave,72143,searcy,ar,,
natalie’s grandview – charlie’s stage,945,king avenue,43212,columbus,oh,united states,
,1202,3rd street se,52403,"cedar rapids,",ia,,
nh collection roma palazzo cinquecento,90,piazza dei cinquecento,00185,rome,,italie,
santa fe higher education center,1950,siringo road,87505,santa fe,nm,,
,125,west jefferson blvd,46802,fort wayne,in,united states of america,
,23,mangfallweg,83629,weyarn,,deutschland,
mark ewin estate agents,77,st johns street,ip33 1sq,"bury st edmunds,",suffolk,united kingdom,
hempel special metals,128,zürichstrasse,8600,dübendorf,,,
,2792,south syene road,53711,fitchburg,wi,united states,
,2435,pinn road,78227,san antonio,texas,estados unidos,
daily planet,6016,phinney ave n,98103,seattle,wa,,
,32,pearl street,10004,new york,new york,united states,
,40,siemensring,87616,marktoberdorf,,,
lincoln theatre,126,e cabarrus st,27601,raleigh,nc,,
,1851,w end ave,17901,pottsville,pa,,
,7748,ritchie highway,21061,glen burnie,md,united states,
arya stadium hotel,383,carrer de sants,08028,barcelone,,espagne,
academy des perroquets,161,impasse des siciles,74270,clermont,,,
sonesta essential vacaville-napa valley,800,mason street,95688,vacaville,,united states,
val a. browning center for the performing arts,,,84408,ogden,ut,,
,1720,s bellaire st.,80222,denver,co,united states,
pizza hut take out- delivery,610,king street w.,l8p 1c2,hamilton,on,,
confiserie selbach inh. heiko wagner e. k.,2,dorotheenstr.,70173,stuttgart,,deutschland,
,820,benson rd.,27529,garner,nc,,
,16550,sw merlo rd.,97003,beaverton,or,united states,
,228-240,donnerstr.,45359,essen-dellwig,nordrhein-westfalen,germany,
,1,via conte verde,86100,campobasso,,italy,
,17 19,herrnbergstraße,65201,wiesbaden-frauenstein,,,
,3,plac konstytucji 3 maja,81-704,sopot,województwo pomorskie,polen,
the premier,109,11th st nw,28601,hickory,,united states,
,,,3253,erlauf,,,
hostal providencia,85,dr ernesto prado tagle,750000,santiago,,cile,
doubletree by hilton ocean city oceanfront,3301,atlantic avenue,21842,ocean city,maryland,united states,
,1,siebentalweg,33165,lichtenau,,,
,12631,broadway st,77584,pearland,tx,,
,283,avenue,10009,new york,new york,,
,303,east 5th street,90013,los angeles,ca,,
,1940,e 8th st,28204,charlotte,nc,usa,
,10,paul kane pl,,victoria,bc,,
sphinx résidences les doges,22,rue du petit clos saint-marc,14000,caen,normandie,france,
car city wholesale shawnee,6801,hedge lane ter,66226,shawnee,ks,,
beer authority,300,w 40th st,10018,new york city,new york,united states,
hotel bellevue schmoelln,7,am pfefferberg,04626,schmoelln,turingia,alemania,
,8,av. josé malhoa,1099-089,lisboa,,portugal,
,1600,rockland road,19803,wilmington,de,usa,se
leticia's hair &amp; nails,219,central ave,93263,shafter,ca,united states,
penck hotel dresden,33,ostra-allee,01067,dresden,saxony,germany,
trustsec it solutions gmbh,121,sigmaringer straße,70567,stuttgart,,de,de
fairfield library,1150,kentucky st,94533,fairfield,ca,united states,
sanremo bakery,374,royal york rd,m8y 2r3,etobicoke,on,,
,23,kungsängsgatan,,uppsala,,,
,11-13,linton road,ox2 6uj,牛津,英格兰,英国,
renaissance atlanta airport gateway hotel,2081,convention center concourse,30337,atlanta,georgia,estados unidos,
,3400,clares street,95010,capitola,ca,,
,13,avenida abaro,48920,portugalete,vizcaya,es,es
,80,grove street,10014,new york,ny,,
,9700,stonestreet road,40272,louisville,kentucky,united states,
cathedral gate hotel,36,burgate,ct1 2ha,canterbury,england,storbritannien,
mahwah wines & liquors,340,ridge road,07430,mahwah,nj,,
,12,'t erf,3831nb,leusden,leusden,netherlands,
,3200,expressway 83,78501,mcallen,texas,united states,
,15605,116 ave nw,t5m 3w1,edmonton,alberta,schweden,
,24,dąbrowskiego,44-100,gliwice,,pl,pl
barclays center,620,atlantic avenue,11217,brooklyn,ny,us,us
hotel de leijhof oisterwijk,7,heusdensebaan,5061 pm,oisterwijk,,nederland,
colbert heights café,6630,woodmont drive,35674,colbert county,alabama,,
,2,gerhart-hauptmann-straße,17459,kölpinsee,,,
hilton garden inn ann arbor,1401,briarwood cir,48108,ann arbor,mi,us,us
"greco neyland, pc",75,s. broadway,10601,white plains,ny,,
,1603,langan ave,v3c 1k6,port coquitlam,bc,canada,
ephrata middle school,957,hammon avenue,17522,ephrata,pa,,
katowice hala spodek,35,al.korfantego,40-005,katowice,,poland,
,8,rue charles dupraz,74100,annemasse,,,
,2000,fashion show drive,,las vegas,vizcaya,united states,
kyriad prestige beaune le panorama,74,route de pommard,21200,beaune,bourgondië,frankrijk,
albergue en el camino,3,francos,34468,boadilla del camino,palencia,spain,
wells fargo bank,2970,horizon road,75032,rockwall,tx,us,us
,12,kerkstraat,3781 gb,voorthuizen,gelderland,netherlands,
,14,water st,02360,plymouth,ma,usa,
postbank,17,europaplatz,55543,bad kreuznach,,,
central library,40,east saint clair street,46204,indianapolis,in,,
,15515,24 ave,v4a 2j4,surrey,bc,canada,
marz community brewing,3630,s iron st.,60609,chicago,il,united states,
the dartmouth north hills,104,dartmouth rd,27609,raleigh,nc,us,us
,14,general-guisanstrasse,5415,nussbaumen,,ch,ch
tri-city electric co.,1821,ingersoll ave,50309,des moines,ia,,
théâtre de la bastille,76,rue de la roquette,75011,paris 11e arrondissement,,fr,fr
national's cafe,444,east william street,89701,carson city,nv,,
,115,s buckner tarsney rd,64029,grain valley,mo,,
,10,via giuseppe ravizza,28100,novara,novara,italia,
"cossuto, via bernardino alimena 84",84,via bernardino alimena,00173,roma,,đức,
basic-fit den helder industrieweg 24/7,14b,industrieweg,1785 ag,den helder,,nl,nl
fred anderson toyota of asheville,777,brevard road,28806,asheville,nc,,
novotel suites malaga centro,7,calle san jacinto,29007,מלאגה,אנדלוסיה,ספרד,
tavo coffee co.,419,n main st,77803,bryan,texas,,
sporthal dongewijk,40,dongewijkdreef,5045xc,tilburg,noord-brabant,nederland,
"ladenlokal entdeckerweine, marktstraße 6, 45964 gladbeck, deutschland",6,marktstraße,45964,gladbeck,nrw,deutschland,
ibis styles den haag scheveningen,63,gevers deynootweg,2586 bj,scheveningen,,nederland,
tax counselors inc,1931,kensington avenue,14215,buffalo,ny,us,us
,,,31200,toulouse,france,,
,29/31,hoża,00-521,warszawa,,polska,
hotel castell blanc,56,sector aeroclub,17487,empuriabrava,,espagne,
,1344,north 27th avenue,85009,phoenix,arizona,estados unidos,
world of smoke & vape - rowlett,6310,dalrock rd,75088,rowlett,tx,us,us
the residence at south windsor farms,200,deming street,06074,south windsor,ct,καναδάς,ru
banner bank,2600,e barnett road,97504,medford,or,,
sheetz,236,west state st.,44601,alliance,oh,,
ben property,3,manor place,eh3 7dh,edinburgh,,,
,973,sauchiehall street,g3 7tq,glasgow,écosse,royaume-uni,
,20,iłżecka,27-400,ostrowiec świętokrzyski,świętokrzyskie,,
,1300,e 9th street,44114,cleveland,oh,,
,21,pl. des corps saints,84000,avignon,vaucluse,fr,fr
,41d,amalienbadstraße,76227,karlsruhe,,de,de
beacon theatre - ny,2124,broadway,10023,new york,ny,us,us
j e robison service,347,page boulevard,01104,springfield,ma,us,us
restaurant de stroper - dordrecht,1,wijnbrug,3311 ev,dordrecht,,nl,nl
,90,haymarket terrace,eh12 5lq,edinburgh,skotland,storbritannien,
four paws pet hotel and resort,4710,s college ave,80525,fort collins,co,us,us
church of the incarnation,550,mendocino avenue,95401,santa rosa,,united states,
kuratko-nosek funeral home,2447,des plaines ave,60546,north riverside,il,us,us
doubletree by hilton hotel san antonio downtown,502,west cesar e. chavez boulevard,,san antonio,tx,us,us
,35214,se center street,98065,snoqualmie,wa,,
hollywood improv comedy club,8162,melrose avenue,90046,los angeles,ca,us,us
,52,jonkerbosplein,6534 ab,nijmegen,,the netherlands,
,1000,urlin ave,43212,grandview heights,ohio,usa,
red roof inn allentown south,2650,moravian avenue,18103,allentown,pennsylvania,mỹ,
,5509,creedmoor road,27612,raleigh,nc,us,us
autohaus am see,15,freie-vogel-straße,44263,dortmund,,de,de
,,,,banjara hills,hyderabad,in,in
,118,trinity shores dr.,77979,port lavaca,texas,,
axiom staffing group,1299,old courthouse sq,25404,martinsburg,wv,,
"today's herbal choice milwaukie, llc",3087,se monroe st,97222,milwaukie,oregon,us,us
bedford high school,47,nashua road,03110,bedford,nh,us,us
"magnolia hotel st. louis, a tribute portfolio hotel",421,north 8th street,63101,st. louis,missouri,mỹ,
,76,calle uria,33003,oviedo,asturia,es,es
,16,calle poeta liern,46003,valencia,comunidad valenciana,españa,
sonesta es suites allentown bethlehem airport,2180,motel drive,18018,bethlehem,pennsylvania,usa,
,1,vahlberger weg,38324,kissenbrück,niedersachsen,germany,
freycinet vineyard,15919,tasman highway,7190,glamorgan/spring bay,tasmania,au,au
,1708,pacific ave.,98402,tacoma,wa,,
,170a,heerbaan,6566 ev,millingen aan de rijn,gelderland,nl,nl
olympic hotel,12,ijsbaanpad,1076 cv,amsterdam,hollande-septentrionale,pays-bas,
commencement bay cannabis - black,5402,pacific hwy e,98424,fife,wa,us,us
,237,7th street,15222,pittsburgh,pa,usa,
"the benson portland, curio collection by hilton",309,southwest broadway,97205,portland,oregon,united states,
"tru by hilton allen dallas, tx",1553,n central expressway,,allen,,us,us
littlefield,635,sackett st,11217,brooklyn,ny,united states,
,13631,garrett highway,21550,oakland,md,,
,17,salzstraße,,hanau,,deutschland,
,50,dechbettener straße,93049,regensburg,bavaria,germany,
,5621,west washington street,46241,indianapolis,indiana,,
globe,437,s. high st.,85501,globe,az,us,us
homewood suites by hilton newburgh-stewart airport,180,breunig rd.,12553,new windsor,纽约州,美国,
courtyard peoria downtown,533,main street,61602,peoria,illinois,usa,
,7,neumarkt,1067,dresden,saxony,germany,
pizzeria venezia mainz mombach,2a,auf der langen lein,55120,mainz,,de,de
,1301,e. 9th street,44114,cleveland,ohio,us,us
hotel felsentor,88,bahnhofstr.,76846,hauenstein,rhénanie-palatinat,allemagne,
club dada parking lots,2720,elm st,75226,dallas,tx,usa,
university of north texas health science center - medical education & training building,3500,camp bowie blvd,76107,fort worth,tx,us,us
hilton dallas/rockwell lakefront,2055,summer lee drive,75032,rockwall,texas,united states,
,200,hawkins dr,52242,iowa city,,,
lauderhill city hall,5581,w oakland park blvd.,33313,lauderhill,fl,united states,
the fat rabbit,825,sutter st,95630,folsom,ca,us,us
hampton inn mount laurel nj,5000,crawford place,,mount laurel,new jersey,,
cibc branch with atm98.79 km,100,mcleod avenue,t7x2h8,spruce grove,ab,,
,17а,ул. антонова-овсеенко,,воронеж,,,
la côte rotie,31,rte de paris,78760,jouars-pontchartrain,jouars-pontchartrain,fr,fr
hotel puerta de las granadas,16,cuesta de gomérez,18009,granada,,spania,ie
hotel du vin stratford upon avon,7-8,rother street,cv37 6lu,stratford-upon-avon,england,united kingdom,
lvr-industriemuseum - museum eisenheim,10a,berliner str.,46117,oberhausen,,,
,18a,manuka drive,,ferntree gully,victoria,au,au
,3002,n. central ave.,85012,phoenix,az,,
hilton london metropole,225,edgware road,w2 1ju,london,england,vương quốc anh,
roelofsen tweewielers bv,60,burgemeester van der zandestraat,7051 ct,varsseveld,,nederland,
auburn hyundai,2807,auburn way north,98002,auburn,washington,,
five guys,30297,detroit rd.,,westlake,oh,,
hilton austin hotel,500,e 4th st,78701,austin,tx,us,us
hotel artemide,22,via nazionale,00184,rom,,italien,
smithfield baptist church,100,wainwright dr,23430,smithfield,,united states,
,56,bulevar kraljice marije,34000,kragujevac,,rs,rs
,69,vogtswiesen,73614,schorndorf,baden-württemberg,de,de
wild landhotel,6,bucher str.,84174,eching,,,
the capital on the park,101,katherine st,2031,sandton,gt,,
roncalli high school,3300,prague rd,46227,indianapolis,in,us,us
h&m herbs & vitamins,1140,battlefield pkwy,30742,fort oglethorpe,ga,us,us
ozo coffee co.,1015,pearl street,80302,boulder,co,,
,208,west holly street,98225,bellingham,wa,united states of america,
cityplace,333,st. mary avenue,,winnipeg,manitoba,canada,
the mart,222,merchandise mart plaza,60654,chicago,il,,
rice's sale & country market,6326,greenhill road,18938,new hope,pa,,
teragram ballroom,1234,west 7th street,90017,los angeles,ca,us,us
the eastern residences at north hills,4204,six forks road,27609,raleigh,nc,us,us
,388,main st,94022,los altos,ca,,
ironton distillery & crafthouse,3636,chestnut pl,80216,denver,co,,
,32,ahornallee,37170,uslar,,,
,5032,market street,28405,wilmington,nc,united states,
hilton garden inn san antonio airport,12828,san pedro ave,78216,san antonio,tx,us,us
,35,calle ximenez de enciso,41004,seville,andalusia,spain,
,9,stationsstraat,9880,aalter,vlaams gewest,belgium,
,43,чапаева,,павлово,"нижегородская обл, павловский",ru,ru
,5525,sepulveda boulevard,,los angeles,styria,united states,
cargo de nuit,7,avenue sadi carnot,13200,arles,,france,
,22,wittelsbacherring,95444,bayreuth,,,
laurel bible church,2920,outfitter trail,59044,laurel,,united states,
,6,kiełbaśnicza,50-102,wrocław,,polska,
arc the hotel,140,slater street,k1p 5h6,ottawa,ontario,canada,
avon grove library,117,rosehill avenue,19390,west grove,pa,united states,
,30594,sussex highway,19956,laurel(de),,us,us
amc aviation 12,1200,south stiles street,,linden,nj,,
q1 tankstelle,62,döbelner straße,01623,lommatzsch,,,
,949,east burnside street,97214,portland,oregon,usa,
,22,dommelstraat,5611 cl,eindhoven,,netherlands,
,5a,maiplatz,58840,plettenberg,,,
northwood high school,310,northwood high school rd.,27312,pittsboro,nc,united states,
,1,dresdner str.,09599,freiberg,,de,de
,257,lowell road,03051,hudson,nh,united states,
,1600,saint camillus dr,20903,silver spring,md,,
,110,w main st.,40202,louisville,ky,united states of america,
,6640,n. durango,89149,las vegas,nevada,united states,
southern ohio medical center,1805,27th st,45662,portsmouth,oh,,
h&a service and sales,811,chance rd,30066,marietta,ga,us,us
,320,e. fontanero street,80907,colorado springs,co,suecia,kr
embassy suites,4550,la jolla village drive,92122,san diego,ca,,
nice way cascais & surf camp,15,av. tenente coronel josé pessoa,,cascais,cascais,portugalsko,
longhaugh primary,9,lothian crescent,dd4 0sx,dundee,,gb,gb
,201,seton pkwy,78665,round rock,texas,,
,5,mozartstr.,32049,herford,nordrhein-westfalen,de,de
,2,bollenhofsestraat,3572 vn,utrecht,,nederland,
,61,powder mill road,01720,acton,massachusetts,,
burger king,2460,mountain city hwy,89801,elko,nevada,us,us
patelco credit union,5040,foothills blvd,95747,roseville,ca,,
,1,golflaan,8445 sr,heerenveen,,netherlands,
,1951,embarcadero,,oakland,ca,us,us
holy cross catholic cemetery,9925,w thomas rd,85392,avondale,,united states,
,119,s burrowes street,16801,state college,pa,us,us
,1,austernplatz,2100,stetten,,,
,14,wilpsedijk,7384 cc,wilp,,nederland,
círculo de bellas artes,42,alcalá,28014,madrid,zachodniopomorskie,españa,
springhill suites indianapolis downtown,601,west washington street,46204,印第安纳波利斯,印第安那,美国,
,250,piedmont avenue northeast,30308,atlanta,ga,,
weinhof scheu,33,hauptstrasse,76889,schweigen-rechtenbach,,,
holiday inn new york city - times square,585,8th avenue,10018,new york,new york,united states,
,18,rote reihe,30827,garbsen,niedersachsen,deutschland,
hotel middelburg,2,bosschaartsweg,,middelburg,,nl,nl
,500,canal street,70130,紐奧良,路易斯安那州,美國,
alvarado street brewery & grill,426,alvarado st.,93940,monterey,ca,,
sandman hotel vancouver downtown,180,west georgia street,,ונקובר,קולומביה הבריטית,קנדה,
,2100,north 49th street,19131,philadelphia,pa,,
harmony bar and grill,2201,atwood ave.,53704,madison,wisconsin,,
optik fesser,97,hauptstr.,75334,straubenhardt,,de,de
cahaba brewing co.,4500,5th ave south,35222,birmingham,al,united states,
reo diner,392,amboy avenue,07095,woodbridge,nj,united states,
ap eva senses,1,avenida da republica,8000-078,faro,faro,portugal,
rutherford county of,319,n maple st,37130,murfreesboro,tn,us,us
,777,pacific blvd,v6b 4y8,vancouver,bc,canada,
inland press,2001,w lafayette blvd,48216,detroit,mi,,
petit ermitage,8822,cynthia street,90069,west hollywood,ca,us,us
holly's hill vineyards,3680,leisure ln.,95667,placerville,ca,,
santa monica main library,601,santa monica blvd,90401,santa monica,ca,united states,
,30,rue du quadrant,14123,fleury sur orne,,france,
keith hawthorne ford,617,n main st,28012,belmont,nc,,
,609,lafayette street,37203,nashville,tn,united states of america,
admiral motel,168,bealey avenue,8013,christchurch,,new zealand,
lowe's of c. las vegas - siding,4625,w charleston blvd,89102,las vegas,nevada,,
,2315,west 4th ave.,v6k 1p2,vancouver,british columbia,ca,ca
vogue theatre - bc,918,granville street,v6z 1l2,vancouver,bc,ca,ca
bosch service kopeć,17,spółdzielcza,55-080,kąty wrocławskie,,,
,3,postplatz,02625,bautzen,,,
boutique hotel germania,28,schwanthalerstr.,80336,münchen,bayern,deutschland,
pegasus apart-hotel,206,a'beckett street,3000,melbourne,victòria,austràlia,
,300,e main st,61072,rockton,il,,
the stellute law firm,34,wine street,23669,hampton,va,,
,2,am anger,4865,nußdorf am attersee,oberösterreich,österreich,
hotel zara milano,28,viale zara,20124,mediolan,milano,włochy,
crosspoint community church,1577,guerneville road,95403,santa rosa,,united states,
ramona convent,1701,w ramona rd,91803,alhambra,ca,us,us
hotel villa ephraim,17,goethestr.,02826,görlitz,,,
,4700,n. university st.,61614,peoria,il,,
,400,commons way,08807,bridgewater,new jersey,us,us
hyatt place boston\/medford,116,riverside avenue,2155,medford,ma,us,us
badhotel domburg,1a,domburgseweg,4357 ba,domburg,,pays-bas,
,1497,sierra rd east,59602,helena,mt,,
,3,avenida de vigo,36003,pontevedra,,españa,
o2 academy liverpool,11-13,hotham street,l3 5uf,liverpool,,gb,gb
,19,choorstraat,3511 kl,utrecht,,,
northwest christian church,1306,n stanley ave,62526,decatur,,united states,
,201,wood lane,w12 7tu,london,london,united kingdom,
,425,chartiers ave,15136,mckees rocks,pa,us,us
,300,north avenue,49017,battle creek,mi,,
,6900,west country club drive,25705,huntington,west virginia,us,us
cubesmart self storage,315,s 16th st,50010,ames,ia,,
buchbinder,,,04315,leipzig,saxony,germany,
"clark university, higgins lounge, dana commons – 2nd floor",36,maywood street,01610,worcester,ma,united states,
,416,south washington street,22046,falls church,va,united states,
comfort suites denver north -westminster,12085,delaware st,80234,westminster,colorado,united states,
hotel raffaello,56,viale santa margherita,30021,caorle,venetien,italien,uk
harbor house inn,1095,main street,93442,morro bay,california,united states,
,135,allée antoine pinay,84000,avignon,,france,
stadttheater euskirchen,25,emil-fischer-str.,53879,euskirchen,,deutschland,
,80,frauenauracher str.,91056,erlangen,сахалинская область,đức,za
hotel diana jardin et spa,1/b,località saint benin,11020,aosta,aostatal,it,it
liesikappeli,7,liesikuja,,vantaa,,suomi,
audi dallas,5033,lemmon avenue,75209,dallas,tx,,
comfort inn downtown dc/convention center,1201,13th street nw,20005,washington,district of columbia,mỹ,
,1a,am storrenacker,76139,karlsruhe,,,
,4,lanyon place,bt1 3lp,belfast,northern ireland,united kingdom,
21c museum hotel louisville,700,west main street,40202,louisville,kentucky,united states,
flat iron cafe,1114,center st,44113,cleveland,,united states,
les longs réages - meudon,12,rue colonel renard,92190,meudon,,,
,2,piazza benacense,38069,nago-torbole,trentino alto adige,,
,6,peterstaler straße,69118,heidelberg,de,schweiz,se
,109,hinthamerstraat,5211 mh,'s-hertogenbosch,,,
,9,main street,54615,black river falls,wisconsin,,
,11,krippgasse,6060,hall in tirol,,at,at
,1575,sullivan ave,94015,daly city,ca,us,us
fairfield inn & suites san diego old town,3900,old town avenue,92110,san diego,california,estados unidos,us
villa motel at manitou springs,481,manitou avenue,80829,manitou springs,colorado,usa,
,453,columbia avenue,29072,lexington,sc,,
radisson hotel mcallen airport,2721,south 10th street,78503,mcallen,texas,stati uniti,
,1601,dallas parkway,75034,frisco,texas,,
u sicilianu,14,am leithenhaus,44892,bochum,,deutschland,
,1000,w. garden ave.,83814,coeur d'alene,id,,
,450,gracern road,29210,columbia,sc,united states,
swissotel kursaal bern,3,kornhausstrasse,3013,bern,,schweiz,
,10,theaterstrasse,8001,"zürich, kreis 1",,,
,1400,market street,63103,st. louis,mo,united states of america,
golden eagle golf club,21770,ladner road,v3y 1z1,pitt meadows,bc,ca,ca
kreisvolkshochschule potsdam-mittelmark,18,am weinberg,14532,kleinmachnow,,,
tandem pópulo,1,c. ruiz de bustamante,11005,cadix,,espagne,
paterskerk,138,truweelstraat,9100,sint-niklaas,,be,be
,505,deaderick st,37219,nashville,tn,united states of america,
,12634,olive blvd,63141,st. louis,mo,us,us
,142-145,northumberland street,ne1 7ag,newcastle upon tyne,newcastle upon tyne,united kingdom,
la barracuda hotel,1,avenida de espana,29620,torremolinos,,spanje,
,2175,e. southlake blvd.,76092,southlake,texas,,
stadhuis lelystad,2,stadhuisplein,8232zx,lelystad,,,
haus menden st. augustin,3,an der alten kirche,53757,st. augustin,,germany,
,6,smedjegatan,722 13,västerås,,sverige,
hotel strandhof,123,westdorf,26579,baltrum,niedersachsen,deutschland,
,83,parkstraat,,den haag,netherlands,,
academy of music,240,south broad street,19102,philadelphia,pa,usa,
courtyard portland city center,550,sw oak street,97204,portland,oregon,stati uniti,
"siófok, hotel azúr",2/c,erkel ferenc u.,8600,siófok,,magyarország,
one fifty parker ave school,150,parker avenue,94118,san francisco,ca,united states,
,369,corso 23 marzo,,novara,,,
la plancha,55,morsstraat,2312 bn,leiden,,nl,nl
bakker bart leusden,5,t plein,3831 cr,leusden,,,
hallenstadion zürich,45,wallisellenstrasse,8050,zürich,zürich,ch,ch
chocolat chocolat inc,8580,st-hubert,h2p1z7,montreal,,canada,
,10/16,polskiej organizacji wojskowej,97-200,tomaszów mazowiecki,,polska,
,1234,eddy st,46617,south bend,in,united states,
ross dress for less,2220,daniels street,95337,manteca,ca,,
toronto reference library ymca newcomer information centre,789,yonge street,m4w 2g8,toronto,on,canada,
nh collection león plaza mayor,15-17,plaza mayor,24003,leon,,spain,
archea brewery,44r,via dei serragli,50125,firenze,,italia,
chambre funéraire du littoral,22,rue des landes,85170,le poiré-sur-vie,,,
heiligenbeeldenmuseum,101,ruurloseweg,,kranenburg-vorden,,,
,21,ketzerbach,35037,marburg,,,
u-haul moving & storage of dayton,1340,e 3rd st,45403,dayton,oh,,
,4,carretera general del sur,38594,granadilla,,spain,
restaurant knossos,35,sprudelallee,63628,bad soden-salmünster,,germany,
,24,breslauer straße,89584,ehingen (donau),baden-württemberg,de,de
legacy nails & spa,4920,teasley lane,76210,denton,texas,us,us
residencial solar s. joão,165,praça luis ribeiro,3700-172,sao joao da madeira,,portugal,
schwimmhalle sollstedt,144,friedeweg,99759,sollstedt,th,de,de
,2904,clark lane,65202,columbia,rp,ee. uu.,
,15,puławska,,warszawa,mazowieckie,pl,pl
art las palmas,79,calle el salvador,,las palmas,gran canaria,spain,
,48,maccurtain street,,cork,corkin kreivikunta,irlanti,
hotell brommavik,45,karlsbodavägen,168 67,bromma,,sverige,
petul apart hotel am ruhrbogen,141,dr.-c.-otto-straße,44879,bochum,,deutschland,
,1,nordstraße,51597,morsbach,nordrhein-westfalen,de,de
yha blue mountains katoomba,207,katoomba street,,blue mountains,blue mountains,australien,
beter bed,70,nijbracht,7821ca,emmen,,nederland,
,18-20,station road,rg1 1jx,雷丁,英格兰,英国,
cityline,4740,32nd avenue south,98118,seattle,wa,,
arlo nomad,11,east 31st street,10016,new york city,new york,stati uniti,
,3,rudolfplatz,50674,köln,,de,de
rockville high school,70,loveland hill rd,06066,vernon,ct,us,us
c&a,10,leipziger strasse,06108,halle (saale),,,
,247,central street,,summerside,prince edward island,,
,19,mindelheimer straße,87600,kaufbeuren,,de,de
blackbird barbershop,80,saint john's street,ip33 1sq,bury st edmunds,,gb,gb
hotel & restaurant kreuzblume,31,konviktstr.,79098,freiburg,baden-württemberg,deutschland,
,1615,l street nw,20036,washington,dc,,
hotel victoria,3-4,centralbahnplatz,4002,basel,,schweiz,
le victoria,35,av. jean janvier,35000,rennes,bretaña,francia,
,6733,fallsview boulevard,l2g 3w7,niagara falls,ontario,canada,
,14,mozartstraße,68161,mannheim,baden-wurttemberg,germany,
hôtel france et chateaubriand,12,place chateaubriand,,saint-malo,bretagne,frankrig,
ta brown elementary,505,w. anderson lane,78752,austin,tx,united states,
quinte sports & wellness centre,265,cannifton road,k8n 4v8,belleville,ontario,canada,
,3900,boat club road,76135,lake worth,tx,us,us
hotel krone,91a,juelicher str.,52070,亚琛,北莱茵-威斯特法伦州,德国,
porsche inter auto gmbh \x26 co kg znl porsche saalfelden,1a,zeller bundesstrasse,5760,saalfelden,,,
mehrzweckhalle schmalkalden,10,teichstraße,98574,schmalkalden,thüringen,deutschland,
,138,linzer strasse,4810,gmunden,oberösterreich,österreich,
,56,vorgebirgsstraße,53119,bonn,kuzey ren-vestfalya,almanya,
hyde park book club,27-29,headingley lane,ls6 1bl,leeds,,,
cibc branch with atm144.63 km,225,boulevard des grives,j9a0c7,gatineau,qc,إسبانيا,
corvette projekt,10,,52134,herzogenrath,,,
smyth co community hospital – marion,245,medical park drive,24354,marion,va,,
naturata recklinghausen,10,dortmunder straße,45665,recklinghausen,,,
,2,main street,,kinsale,co cork,,
stroblwirt,6,dorfstraße,82386,oberhausen,,deutschland,
chaconia caribbean cuisine,26,deptford high street,se8 4af,london,,gb,gb
hotel art santander,20,calle santa teresa de jesus,39003,santander,,españa,
gloria palace royal hotel & spa,1,c/ tamara,35130,amadores,,spania,
platte woods united methodist church - parents day out,7310,nw prairie view rd,,kansas city,mo,,
,,,84800,l'isle-sur-la-sorgue,vaucluse,france,
"mid-state pools & spas, inc.",2273,veterans blvd.,31021,dublin,ga,us,us
doubletree annapolis,210,holiday ct,21401,annapolis,,united states,
roma reial,11,plaça reial,08002,barcelona,,es,es
biohotel mattlihüs,28,iselerstraße,87541,bad hindelang,bayern,deutschland,
everydayplumber.com - brandon plumbers,3912,w south ave,33614,tampa,fl,us,us
midas,1604,n dupont hwy,19720,new castle,de,us,us
"intercontinental new york barclay, an ihg hotel",111,east 48th st,10017,new york city,new york,usa,
restaurant zimdars,51,sahlenburger chaussee,27476,cuxhaven,,deutschland,
fort scott community college,2108,s horton,66701,fort scott,ks,us,us
pieper-kersten hotel,4,finkenweg,49196,bad laer,,,
,5,borgo san lazzero,56048,volterra,toscana,,
volksbank börßum-hornburg eg - filiale hornburg,2a,vor dem dammtor,38315,hornburg,,,
,11,schoodic dr,19711,belfast,maine,united states,
,172,white plains road,,bronxville,ny,,
,998,harbourside dr,v7p 3t2,north vancouver,bc,canada,
,56,camino de la mosquetera,50010,zaragoza,zaragoza,es,es
mountain brook junior high school,205,overbrook road,,mountain brook,alabama,,
black pond baptist chuhrch,3644,old jennings rd.,32068,middleburg,,united states,
,231,calibre chase drive,27609,raleigh,nc,us,us
,53,gedempte oude gracht,2011 gl,haarlem,,netherlands,
hotel sommer,74,weidachstraße,87629,füssen,,deutschland,
lobero theatre,33,e canon perdido st,93101,santa barbara,ca,united states,
stays design hotel dortmund,79,paderborner str.,44143,dortmund,renania de nord-westfalia,germania,
hotel malcot,236,leuvensesteenweg,2812,mechelen,,belgië,
kindercare,11,monroe pkwy,,lake oswego,or,us,us
liberty elementary school,17901,205th avenue northwest,55309,big lake,mn,,
cape ann museum,27,pleasant street,01930,gloucester,,united states,
home2 suites by hilton dallas addison tx,4875,belt line road,75001,addison,tx,us,us
lewis county fire protection district #3,238,mossyrock rd e,98564,mossyrock,wa,united states,
yup hotel,52,thonissenlaan,3500,hasselt,,belgium,
mcdavid ford fort worth,300,w loop 820 s,76108,fort worth,tx,,
de vooruitgang,11,markt,5611eb,eindhoven,,,
holiday inn express & suites san marcos south,900,barnes drive,78666,san marcos,texas,united states,
congregation beth abraham,1073,elmwood avenue,14222,buffalo,ny,united states,
"hallmann gmbh, hans-joachim schlosserei und metallbau",5,an der sandkuhle,29594,soltendieck,,,
"hotel indigo los angeles downtown, an ihg hotel",899,francisco st,90017,los angeles,california,usa,za
,15,shoreham ln,b3p 2r3,halifax,ns,ca,ca
parkway toyota of boston,1605,vfw pkwy,02132,west roxbury,ma,,
,383,avinguda diagonal,08008,barcelona,,españa,
,2005,2nd avenue,55303,anoka,minnesota,united states,
komed,7,im mediapark,50670,köln,,,
,1901,dresden rd.,43701-,zanesville,oh,,
subway,8202,n loop 1604 w,78249,san antonio,tx,united states,
vodácké tábořiště dronte kynšperk,206,pobřežní,35751,kynšperk nad ohří,karlovarský kraj,cz,cz
,33,büchsenstraße,70174,stuttgart,,,
courtyard by marriott fredericksburg historic district,620,caroline street,22401,fredericksburg,va,us,us
,,,82020,campolattaro,campania,,
hotel kappelner hof,1,wassermuhlenstrasse,24376,kappeln,slesvig-holsten,tyskland,
hyatt place secaucus meadowlands,575,park plaza dr,07094,secaucus,nj,,
pinthouse pizza,4729,burnet rd,78756,austin,tx,us,us
aldi süd,5,habitzheimer str.,64823,groß umstadt,,,
,915,w 49th st,33012,hialeah,fl,,
holiday inn express west palm beach metrocentre,2485,metrocentre blvd.,33407,west palm beach,florida,united states,
holiday inn express rochester - university area,717,east henrietta road,14623,rochester,new york,united states,
,75,friedrich-ebert-str.,51429,bergisch gladbach,nordrhein-westfalen,de,de
bella italia,92,queen street,ex4 3rp,exeter,devon,,
,8,hauptstr.,63512,hainburg,,,
,5202,de run,5504 dc,veldhoven,,,
,2,richard-wagner-straße,04109,leipzig,,,
,1230,north delaware street,46202,indianapolis,in,united states,
harry’s home telfs,21,weißenbachgasse,6410,telfs,tirol,österreich,
,5,okólna,27-400,ostrowiec świętokrzyski,świętokrzyskie,,
towneplace suites dallas plano/legacy,5005,whitestone lane,75024,plano,texas,united states,
wyndham pittsburgh university center,100,lytton ave.,15213,pittsburgh,pa,us,us
,,,64111,kansas city,mo,united states,
,5115,roe blvd,66205,roeland park,ks,,
tehtaan kenttä,9,tehtaankatu,37600,valkeakoski,,,
singer theater,1,oude drift,1251 bs,laren,noord holland,nl,nl
,1,unterlinden,6922,wolfurt,risaralda,österreich,
hotel borromeo,117,via cavour,00184,roma,,italia,
berliner hof,6,ringstraße,24103,kiel,schleswig holstein,alemania,
the lincoln center magnolia theatre,417,w magnolia st,80521,fort collins,co,,
,1185,perry street,24061,blacksburg,virginia,united states,
the pool at talking stick resort,9800,east indian bend road,85256,scottsdale,az,us,us
the gurkha kitchen,1342,s mary ave,94087,"sunnyvale, ca",ca,us,us
,14,werkstraße,57537,wissen,,de,de
casino del sol,5655,w valencia road,85757,tucson,az,united states,
,5000,hennessy blvd.,70808,baton rouge,la,,
,5300,california avenue,92617,irvine,california,,
stadtcafé sander,12,kohlenkamp,45468,mülheim an der ruhr,,,
landmark honda,5125,duke st,22304,alexandria,va,us,us
sar große,24,schulzenweg,19061,schwerin,,,
,5,pawia,31-154,kraków,,polska,
"pilgrim skating arena, inc.",75,recreation park drive,02043,hingham,ma,us,us
el diablo hostel belgrade,75,strahinjića,,belgrado,belgrado,servië,
centre nautique le toboggan,310,quai de la brigade du languedoc,30100,alès,,fr,fr
,346,nieuwezijds voorburgwal,1012 rx,amsterdam,,,
,12,bahnhofstr.,36419,geisa,geisa,de,de
,10,rue la libauderie,44190,gétigné,,fr,fr
bella napoli pizzeria,1065,township line rd,19460,phoenixville,pa,us,us
,12,via guglielmo silva,20149,米蘭,米蘭,義大利,
esso tankstelle,12,weilheimer str.,82418,murnau,,,
"the laurel inn, part of jdv by hyatt",444,presidio ave,,san francisco,california,united states,
raum 6 im sportpunkt der ftg frankfurt,28,marburger str.,60487,frankfurt,,deutschland,
,211,lincoln st.,95678,roseville,,,
,3317,forty mile road,95692,wheatland,ca,us,us
"närhälsan trollhättan rehabmottagning, gärdhemsvägen 1",1,gärdhemsvägen,461,trollhättan,västra götaland,sweden,
wawa 2,2050,sproul rd,19008,broomall,pa,us,us
hotel laudinella,17,via tegiatscha,7500,st. moritz,graubunden,switzerland,
subway,3689,blue ridge boulevard,29691,oconee county,south carolina,,
europaschule friesenschule leer,11,pastorenkamp,,26789 leer (ostfriesland),niedersachsen,,
,24,orland square drive,60462,orland park,il,us,us
hotel steinbock / pizzeria da salvi,189,dorfstrasse,3818,grindelwald,,schweiz,
sleep inn & suites,105,san drive,31322,pooler,georgia,united states,
de leermeester,12a,rechtestraat,5611 gp,eindhoven,,nl,nl
,728,e brady st,53202,milwaukee,wi,,
auto serwis sklep styła adam styła,8,żmujdzka,31-426,kraków,,,
ashford elementary school,100,barfield street,36312,ashford,alabama,,
,1501,w. bradley ave.,61625,peoria,il,,
,4000,e. ontario center parkway,91764,ontario,ca,us,us
,2,calle cañaveral,49032,zamora,zamora,es,es
best western plus hotel noble house,6,per weijersgatan,211 34,malmö,skåne län,schweden,
galaxie at sellwood,7400,se milwaukie ave,97202,portland,or,,
mercure inverness hotel,,,iv1 1qy,inverness,escocia,reino unido,
notfallklinik dr. eismann,20,bankstrasse,8400,winterthur,zh,,
popeyes (11210 memorial pkwy sw),11210,memorial pkwy sw,35803,huntsville,al,us,us
park plaza london waterloo,6,hercules road,se1 7dp,lontoo,englanti,yhdistynyt kuningaskunta,
marriott albuquerque,2101,louisiana boulevard northeast,87110,albuquerque,new mexico,amerika serikat,
,10,consumer center dr,45601,chillicothe,oh,,
abfallwirtschaftsbetrieb des landkreises göppingen,41,carl-hermann-gaiser-straße,73033,göppingen,,,
torchlight brewing co.,125,hall st,v1l 7b4,"nelson, bc",,,
,2001,international drive,22102,mclean,va,us,us
kersting reisen gmbh & co. kg,3,schultheißstr.,59889,eslohe,,deutschland,
hawthorne theatre,1507,se 39th ave,97214,portland,or,us,us
,45,космонавта беляева,,пермь,,ru,ru
,12,heuwaagstraße,91054,erlangen,bayern,de,de
rodeway inn pronghorn lodge,150,east main street,82520,lander,wy,us,us
,20,schillerstr.,74321,bietigheim-bissingen,,,
,124,12th avenue south,37203,nashville,tn,,
,620,w washington st,85003,phoenix,az,usa,za
le métropole,39,rue du sentier,75002,paris,,france,
toyota arena - ontario,4000,ontario center pkwy,91764,ontario,ca,us,us
"holiday inn eindhoven, an ihg hotel",1,veldmaarschalk montgomerylaan,5612 ba,eindhoven,,pays-bas,
panadera y pastelera las 3 hermanas,619,s mission st,,wenatchee,wa,us,us
imkerei lohse,11,uferweg,01877,putzkau,,,
aok rheinland-pfalz/saarland,8,bäckerstr.,56727,mayen,,deutschland,
,15,mäster johansgatan,211 21,malmo,escania,suecia,
,#92-32,avenida calle 26,,bogotá,distrito capital,colombia,
hotel diano marina,75,via generale ardoino,18013,diano marina,,italien,
,56,haagweg,,breda,,nl,nl
star tankstelle,42,thomas-müntzer-straße,06648,eckartsberga,,,
,18,kleiner ort,28357,bremen,,,
,8031,fountain mesa rd,80817,fountain,co,us,us
our lady of guadalupe church,2020,e. san antonio street,,san jose,queensland,united states,
,31,corso milano,20900,monza,lombardia,,
sparkasse karlsruhe filiale forchheim,38,karlsruher straße,76287,rheinstetten,,,
dresden,15,wilsdruffer straße,01067,dresden,de.sn,de,de
,455,crescent st.,11208,brooklyn,ny,usa,
,29,via guidino,6900,lugano paradiso,,switzerland,
,1531,west main street,,bozeman,mt,,
joachim siegel,4,friedenstraße,71409,schwaikheim,,deutschland,
jamaica riding academy,7000,shore parkway,11234,brooklyn,ny,united states,
,228,main street,,north creek,ny,us,us
,10,hightower place,35630,florence,al,usa,
cast iron range cookers ltd,50,high street,,princes risborough,buckinghamshire,gb,gb
,4949,n rancho dr,89130,las vegas,nv,us,us
la quinta inn & suites by wyndham granbury,880,harbor lakes drive,76048,granbury,texas,united states,
,1395,south pinellas avenue,34689,tarpon springs,fl,united states,
,1925,woodwinds drive,55125,woodbury,mn,,
,9651,colerain ave,45251,cincinnati,ohio,united states,
,,,100001,lagos,lagos,nigeria,
7-eleven (16920 15th ave ne),16920,15th ave ne,98155,seattle,wa,us,us
american shakespeare center – blackfriars playhouse,10,s market st,24401,staunton,va,united states,
wolf conservation center,7,buck run,10590,south salem,ny,united states,
dino,17,namysłowska,46-034,pokój,opolskie,pl,pl
aral tankstelle bochum,403,herner straße,44807,bochum,,de,de
a.t.u. auto-teile unger,15,papenburger straße,26789,leer (ostfriesland),,deutschland,
rising mt. zion baptist church,2705,hartman street,23223,richmond,va,us,us
,168,north main street,06360,norwich,connecticut,,
sieger automotive services gmbh,8,ernst-abbe-ring,,neustadt am rübenberge,,,
hotel mühlenhof,31,kyritzer straße,16868,wusterhausen,,,
baglioni hotel regina - the leading hotels of the world,72,via vittorio veneto,00187,rome,,italy,
,5,sputtenwinkelstrasse,88069,tettnang,,de,de
st. peter food co-op,228,mulberry street,56082,st. peter,mn,united states,
,7751,n el capitan way,89143,las vegas,nv,,
monroe street framing,1901,monroe street,53711,madison,wi,,
angerhalle möhringen,14,im anger,78532,tuttlingen,,germany,
,301,main street,70001,baton rouge,la,,
clover high school,1625,highway 55 east,29710,clover,sc,,
pfarrkirche traunkirchen mit fischerkanzel,1,klosterplatz,4801,traunkirchen,oberösterreich,österreich,
,7,richard-wossidlo-straße,17192,waren müritz,,,
,1,resort drive,31421,savannah,ga,,
кенгуру-спартак,135,каравайковой,,иваново,,,
,600,e grand ave,60611,chicago,il,,
reinhard nolze,5,mühltalstr.,69121,heidelberg,,deutschland,
,740,burdett avenue,v8w 1b2,victoria,colombia británica,canadá,
,4369,main street,v0n 1b4,whistler,british columbia,canada,
,28,rua canovas del castillo,36202,vigo,galizia,spagna,
stacked b m x shop,9442,magnolia avenue,92503,riverside,ca,us,us
,1320,point breeze ave,19146,philadelphia,pa,,
парадиз,46,сююмбике улица,423570,нижнекамск,,россия,
countryside station 1,801,s. midlothian road,60060,mundelein,il,united states,
,225,s olive st,90012,los angeles,california,usa,
,801,red river st,78701,austin,tx,us,us
bo33 hotel family & suites,33,szövetség u.,1074,budapest,budapest,hungary,
t-mobile center,1407,grand boulevard,64106,kansas city,kansas city,us,us
mattapoisett free public library,7,barstow st,02739,mattapoisett,ma,united states,
,259,allegheny boulevard,,brookville,pa,,
pensiunea vânătorul băile tușnad,17,aleea szent anna sétány,535100,băile tușnad,,,
zenit sevilla,90,pages del corro,41010,seville,andalusia,spain,
metzgerei zum schmid,38,kaltenmoser straße,,weilheim,,,
,2704,newton street,47546,"jasper,",in,,
old national centre,502,n. new jersey st.,46204,indianapolis,in,,
ramada inn,352,north st,04072,saco,me,united states,
tropical birds & pets,79,victoria road,,nottingham,nottinghamshire,gb,gb
schüler- und erholungsheim der kreuzschwestern gosau,31,kirchenstraße,4824,gosau,oberösterreich,österreich,
,1844,sw morrison st,97205,portland,or,united states of america,
,440,chemin avila,j0r 1k0,piedmont,qc,canada,
bakers dozen,38,victoria road,so31 5dg,southampton,,,
wilhelm automotive,14297,west grand avenue,85374,surprise,arizona,us,us
hotel alexander,42,hertensteinstrasse,6353,weggis,,schweiz,
national quilt museum,215,jefferson st.,42001,paducah,kentucky,us,us
china-restaurant canton,37,maria-theresien-straße,6020,innsbruck,palencia,,
,1936,harbor ave sw,98126,seattle,wa,,
,910,iberville street,70112,new orleans,louisiana,usa,
st. anne's catholic church,440,e elliot rd,85234,gilbert,,united states,
hampton inn manhattan-chelsea,108,west 24th street,10011,new york city,new york,united states,
,100,5th street,98264,lynden,wa,,
"intercontinental washington d.c. - the wharf, an ihg hotel",801,wharf street sw,20024,washington dc,district of columbia,usa,
,21,rue de la charité,69002,lyon,,,
rosenberg,1908,avenue e,77471,rosenberg,tx,us,us
matterhorn lodge hotel & apartments,11,englischer viertel,3920,zermatt,,suisse,
hotel corte valier,9,via della pergolana,37017,lazise,veneto,italy,
jelly belly factory,1,jelly belly lane,,fairfield,ca,,
the edgemere,4201,locust street,64111,kansas city,mo,,
,9,bursztynowa,76-156,dąbki,zachodniopomorskie,pl,pl
e-tax service,31198,beck road,48377,novi,mi,,
,51,stübeweg,79108,freiburg im breisgau,baden-württemberg,de,de
hotel denk bed & breakfast,3,bahnhofstr.,4655,vorchdorf,oberösterreich,österreich,
bed & breakfast zuidlaren,17,telefoonstraat,9471 ek,zuidlaren,drenthe,netherlands,
thomas beaver free library,317,ferry street,17521,danville,pa,united states,
fitness first köln bayenthal,271,bonner straße,50968,cologne,,de,de
,17317,conneaut lake rd,16335,vernon township,pa,,
,35,kerkstraat,5401bd,uden,uden,netherlands,
rosebar,1215,connecticut avenue northwest,20036,washington,dc,us,us
regions bank,1601,washington avenue,33139,miami beach,fl,,
hilton garden inn phoenix downtown,15,east monroe street,85004,phoenix,arizona,united states,
,32,noordeinde,2231 ll,rijnsburg,,netherlands,
hampton inn columbus south,4017,jackpot road,43123,grove,oh,us,us
"matild palace, a luxury collection hotel, budapest",36,vaci utca,1056,budapest,"нижегородская обл, павловский",hongrie,
jinya ramen bar - athens,351,e broad st,30601,athens,ga,us,us
,21,rue de la vanne,92120,montrouge,,fr,fr
,111,smithfield street,15222,"pittsburgh, pa",pa,,
lexus of chandler auto repair service,7430,w orchid ln,85226,chandler,az,us,us
summit lake state park,5993,n messick rd,47362,new castle,in,united states,
ośrodek promocji gminy węgierska górka - gminna biblioteka publiczna węgierska górka,43,zielona,34-350,węgierska górka,,,
,1200,brickell avenue,33131,miami,fl,,
camping park umag mobile homes,132a,ladin gaj,52470,umag,,croatia,
hotel vienna,54,via giorgio rizzardi,30175,marghera,venetien,it,it
,29,storgatan,,tranås,,,
harbour cove marina,5910,vacation lane,20751,deale,md,us,us
fachklinik oldenburger land,9,neerstedter straße,27801,dötlingen,,,
"tivolivredenburg,",11,vredenburgkade,3511 wc,"utrecht, nl.",,netherlands,
,4,place albert gérard,13660,orgon,,france,
junushoff theater,3,plantsoen,6701 as,wageningen,gelderland,nl,nl
hot springs,1801,n pershing st,87901,truth or consequences,nm,us,us
endeavor health glenbrook hospital,2100,pfingsten rd,60026,glenview,il,,
van der valk hotel amsterdam - amstel,20,joan muyskenweg,1096 cj,amsterdam,,paesi bassi,
presidio san agustin del tucson museum,196,n. court ave,85701,tucson,az,,
studio 338,338,boord st,se10 0pf,london,england,united kingdom,
raab karcher waldkraiburg,10,ratiborer straße,84478,waldkraiburg,bayern,,
sharm hotel,33 b,raadhuisstraat,1016 dc,amsterdam,,the netherlands,
holiday inn express & suites lenexa - overland park area,9620,rosehill road,66215,lenexa,kansas,united states,
,3,pocztowa,83-010,straszyn,pomorskie,,
ro-tech b2b-shop,53,waldbahnstr.,83324,ruhpolding,,de,de
worldwide backlinks,658,church street,3121,richmond,victoria,australia,za
,13b,via castiglione,,bologna,,,
richardson richardson & boudreaux,7447,s. lewis ave.,74136,tulsa,oklahoma,,
,5,rue jean jaurès,83120,le plan-de-la-tour,,france,
,840,apollo street,90245,el segundo,ca,us,us
,1-а,ул. физкультурная,,южно-сахалинск,сахалинская область,ru,ru
auto-mart żyrardów,82,jaktorowska,96-300,żyrardów,,polska,
gary h baker pa,2470,sunset point rd,,clearwater,fl,,
centro-de-dia-aralia-ensanche-de-vallecas,1,avenida cerro milano,28031,madrid,madrid,spain,
,400,winchester drive,22602,"winchester,",va,,
,65,zeestraat,2518 aa,den haag,,nl,nl
,17,place du bronze,6980,la roche-en-ardenne,,belgique,
,10,via francesco daniele,81100,caserta,campania,,
hilton washington dc national mall the wharf,480,l'enfant plaza sw,20024,washington dc,district of columbia,verenigde staten,
gasteiz jimmy jazz sala,4,c/ coronación de la virgen blanca,01012,gasteiz,araba,spain,
,368-370,green lanes,,london,england,united kingdom,
dunkin' donuts,100,eddy rd,,manchester,nh,,
,3348,peachtree rd,30305,atlanta,ga,,
la escalera de jacob,9,calle de lavapiés,28012,madrid,madrid,españa,
wibby brewing,,,80501,longmont,co,,
,30,willy-brandt-straße,70173,stuttgart,,,
the grand at the complex slc - complex,536,west 100 south,84101,salt lake city,utah,usa,
,61,wythe avenue,11249,brooklyn,new york,united states,
,1560,south interstate 35,78666,san marcos,tx,us,us
quality inn near chico state,715,main street,95928,chico,ca,united states,
,3097,sunnyside st.,53589,stoughton,wi,,
landmar costa los gigantes family resort,8,calle juan manuel capdevielle,38683,puerto de santiago,,spanien,
toothzone,1220,oak park drive,80525,fort collins,co,,
be one,146a,utrechtseweg,6862 as,"oosterbeek, nederland",,,
,4875,dtc blvd.,80237,denver,co,us,us
comunale 2,23,viale santuario,20831,seregno,,,
,3,wezenstraat,6811 cr,arnhem,,netherlands,
,5115,north socrum loop road,33809,lakeland,fl,us,us
,176,groningerstraat,3812 eg,amersfoort,,,
15 warren ave. (505 tremont st.) - atelier 505 garage,15,warren avenue,02116,boston,ma,us,us
,8,dorpsstraat,3433 ch,nieuwegein,,netherlands,
towneplace suites by marriott auburn university area,1117,south college street,36832,auburn,alabama,spojené státy,
,97,berrow road,ta8 2pg,burnham-on-sea,,,
hotel de lindeboom,14,groeneplaats,1791 cc,den burg,,,
village-brush park manor,2900,brush st.,48201,detroit,mi,,
,,via pasolini p.p. 1,53048,sinalunga,toscana,,
springhill suites by marriott fort lauderdale airport & cruise port,151,southwest 18th court,33004,dania beach,florida,united states,
,96/13,piekarska,41-902,bytom,,,
cascina montagnola,1,strada montagnola inferiore,15058,viguzzolo,piemonte,,
,1335,10th avenue east,55379,shakopee,mn,,
,2256,first street,33901,fort myers,fl,,
st. anthony’s high school,275,wolf hill road,11747,south huntington,ny,united states,
kindercare,518,vischer ferry rd,,clifton park,ny,us,us
,2,nortruper str.,49577,kettenkamp,,,
landgasthof euringer,23,dorfstr.,92339,beilngries-paulushofen,,deutschland,
preston hyundai of boardman,7554,market st,44512,boardman,oh,us,us
hotel tirol fiss,1,angerweg,6533,fiss,tirol,österreich,
,1405,pentecostal road,k9a 4j8,cobourg,on,canada,
basement bar at never for ever,79,highgate road,nw5 1tl,london,,gb,gb
aurora medical center oshkosh pediatric urology clinic,855,n westhaven dr,54904,oshkosh,wisconsin,,
,1,corso concordia,20129,milán,milano,italia,
valley view golf club,302,e kagy blvd,59715,bozeman,mt,,
,85,albert street,b5 5je,birmingham,england,storbritannien,
a&b cycle a&b cycle,3620,south national avenue,65807,springfield,mo,,
sofitel adelaide,108,currie street,,adelaida,australia meridional,australia,
sportpark warmbad,16,warmbach weg,9504,villach,,oostenrijk,
7er club,7,industriestraße,68169,mannheim,,de,de
the cody hotel,232,west yellowstone avenue,82414,cody,wyoming,united states,
gymnase du haut-dick,,,,carentan,,,
teuber martina steuerberater,22d,helfkamp,58454,witten,,,
,2,avenue de l'europe,67300,schiltigheim,,france,
,70,snare creek ln,4649,jonesport,me,,
les fromages divins,127,rue dalayrac,94120,fontenay-sous-bois,idf,fr,fr
,1400,norwich st,31520,brunswick,ga,,
ght oasis tossa & spa,3,carrer lope mateo,17320,tossa de mar,girona,españa,
,500,hospital dr.,36092,wetumpka,al,,
tagespflege sonnenblume inhaber sven bode,21,auf der neuen reihe,37574,"einbeck, wenzen",niedersachsen,germany,
leonardo royal hotel köln - am stadtwald,287,duerener strasse,50935,köln,nordrhein-westfalen,tyskland,
chase bank,11111,bloomingdale avenue,33578,riverview,fl,us,us
,3,zum sandseele,78479,reichenau,,,
hotel diplomatic,42,via cernaia,10122,turín,,italia,
bazsports,17,rue d'athis,61100,flers,,,
family dollar #6098,10645,n 19th ave,85029,phoenix,az,us,us
super 8 by wyndham revelstoke bc,1700,west victoria street,v0e 2s0,revelstoke,,canada,
hotel montanara,123,dorfstraße,6561,ischgl,tricht,österreich,
best western wein-und parkhotel nierstein,1,an der kaiserlinde,55283,nierstein,,germany,
,24,arzobispo guisasola,33009,asturias,principado de asturias,spain,
hotell smålandsgården,8,gamla brunnsvägen,563 91,gränna,,sverige,
roombach hotel budapest center,14,rumbach sebestyen utca,1075,budapest,budapest,hungary,
,15,lansdowne street,02215,boston,massachusetts,united states,
pita pit,678,east river road,b2h 3s1,new glasgow,ns,西班牙,uk
,2824,middlefield road,94063,redwood city,california,,
vereinsheim frohsinn,37,hinterriedstr.,71272,renningen,,,
,10,thackeray street,w8 5et,kensington,london,,
windsor hotel,36,grafenberger allee,40237,düsseldorf,north rhine-westphalia,đức,
küchwaldbühne,34,küchwaldring,09113,chemnitz,,,
,20,branilaca sarajeva,71000,centar,,ba,ba
southwinds motel,1321,simonton street,33040,key west,florida,united states,
basic-fit meppel blankenstein 24/7,275,blankenstein,7943 pg,meppel,,nl,nl
stayokay amsterdam vondelpark,5,zandpad,,amsterdam,amsterdam,holandia,
,4800,broadway avenue,44127,cleveland,oh,,
,109,varkausring,01796,pirna,,de,de
mullinax ford of vero beach,488,us highway 1,32962,vero beach,fl,,
courtyard by marriott omaha la vista,12560,westport parkway,68128,la vista,nebraska,yhdysvallat,
tampereen uintikeskus,7,joukahaisenkatu,33540,tampere,,suomi,
apart neptun,1,grząska,80-833,gdansk,uden,polen,
,,,,třeboň,jihočeský kraj,cz,cz
subway on canal,25814,canal road,36561,orange beach,alabama,,
,2,rasenweg,07318,saalfeld,,de,de
,2560,9th street,94710,berkeley,ca,united states,
,845,s otsego ave,49735,gaylord,mi,,
,9,heemskerckstraat,1792 aa,"oudeschild, texel",,nl,nl
earthwise community association,315,bagot road,6008,subiaco,wa,australia,
design tech high school,275,oracle pkwy,94065,redwood city,ca,us,us
residence inn by marriott cleveland downtown,527,prospect avenue east,44115,cleveland,ohio,mỹ,
,747,congress street,04102,portland,maine,united states,
schauspielhaus/theater magdeburg,64,otto-von-guericke-straße,39104,magdeburg,,,
moose lodge 1511,140,north street,01864,north reading,ma,us,us
the court,50,beaufort street,,perth,wa,au,au
spca of texas’ dallas animal care center,2400,lone star dr.,75212,dallas,tx,united states,
premiere classe hotel liege,330,rue de l'arbre courte-joie,4000,liège,,belgique,
,270,flinders street,3000,melbourne,victoria,úc,
,201,s mary ave,94086,sunnyvale,ca,,
,9623,mentor ave,44060,mentor,ohio,united states,
bryan niklawski - chase home lending advisor - nmls id 240542,1038,e 6th ave,80218,denver,co,us,us
,24901,northwestern highway,48075,southfield,mi,us,us
wialan,9,hodowlana,33-100,tarnów,małopolskie,,
deutsches haus,11,bäckergasse,,schifferstadt,,,
kreisverband mayen-koblenz e.v.,7,westbahnhofstraße,56727,mayen,,,
sunrise restaurant,3,staffelsteiner str.,,nürnberg,,,
country inn stes savannah air,21,yvette johnson hagins dr,31408,savannah,ga,us,us
,1060,dakota drive,55120,mendota heights,mn,,
mudrock's tap & tavern,585,e south boulder rd,80027,louisville,co,us,us
,555,rua jose maria lisboa,,são paulo,san pablo,brasil,
,301,12th avenue south,55313,buffalo,mn,,
,7,tivoli st,12207,albany,ny,us,us
,139,osloweg,9723 bk,groningen,,nederland,
sleep inn & suites bakersfield north,6257,knudsen dr,,bakersfield,,us,us
postnet,2363,james st,,syracuse,ny,,
cibc branch with atm273.13 km,23,mapleview drive west,l4n9h5,barrie,on,,
,1055,w georgia st,v6e 3p3,vancouver,british columbia,kanada,
teragram ballroom,1234,west 7th street,90017,los angeles,ca,us,us
hotel metrò,61,corso vercelli,20144,milan,,italie,
brentwood villa bed and breakfast,560,king street,ab24 5sr,אברדין,סקוטלנד,בריטניה,
meneer potter,3,potterstraat,,"utrecht, netherlands",,,
st. joseph's preparatory school,1733,w. girard avenue,19130,philadelphia,pa,,
hilton garden inn livermore,2801,constitution drive,94550,livermore,kalifornia,yhdysvallat,
,23,karl-wiechert-allee,30625,hannover,niedersachsen,de,de
,824,n. kansas ave.,66608,topeka,ks,united states,
,8750,w sura ln,53228,greenfield,wi,,
cvs,216,henry st,11550,hempstead,ny,us,us
,6001,university blvd,15108,moon,pa,united states,
holy saviour church,407,e. main st.,19401,norristown,,united states,
,25,jägerstr.,16278,angermünde,angermünde,,
hotel catedral,11,nunez de arce,47002,valladolid,,,
anchorage church of christ,2700,debarr road,99508,anchorage,,united states,
b&b hotel münchen-olympiapark,156,pelkovenstr.,80992,münchen,bayern,deutschland,
burckhardt rainer metallbau,13b,gießereistr.,39517,tangerhütte,,,
,3515,wilshire blvd,90010,los angeles,ca,us,us
,1,seminole way,33314,fort lauderdale,fl,united states of america,
dickau automobile-service gbr,70,hauptstr.,,hassel (weser),,,
"tempe mission palms, a destination by hyatt hotel",60,east 5th street,85281,tempe,arizona,united states,
shea’s 710 theatre,710,main street,14202,buffalo,ny,united states,
n201,90,zwarteweg,1431,aalsmeer,noord holland,nl,nl
esso tankstelle,19,frankfurter str.,36154,hosenfeld,,,
gamle nobes bodega,36,kristianstadsgatan,21435,malmö,malmö,se,se
star tankstelle bremen,100,oldenburger straße,28259,bremen,,de,de
gstaad,41,promenade,3780,gstaad,,ch,ch
,17,rozenstraat,3270,scherpenheuvel,flemish brabant,be,be
little dom's,2128,hillhurst ave,90027,los angeles,ca,us,us
,1,piragua,28042,madrid,west virginia,espanja,
,4,emerson place,02114,boston,massachusetts,usa,
,460,veterans dr,08016,burlington,new jersey,united states,
,61,moniuszki,30-347,mysłowice,,,
,88,niddastr.,60329,frankfurt,hessen,saksa,
konzert- und kongresszentrum harmonie heilbronn,28,allee,74072,heilbronn,,,
,15,rue charles lindbergh,31700,blagnac,,france,
crystal hotel & savour,167-169,hills road,cb2 8rj,cambridge,inglaterra,reino unido,
holiday inn express city north,2a,italielei,2000,antwerp,,belgium,
fairfield inn & suites by marriott anniston oxford,143,colonial drive,,oxford (al),,us,us
,24,łososiowa,91-496,łódź,łódzkie,,
,29,via del duomo,76121,barletta,,italy,
,,,92104,san diego,ca,,
u-haul moving & storage of bremerton,2804,kitsap wy,98312,bremerton,wa,,
cadence at nocatee,380,burbank ave,32081,ponte vedra,fl,,
beauforthuis,70,woudenbergseweg,3711 ab,austerlitz,utrecht,nl,nl
,11160,s pikes peak dr,80138,parker,co,us,us
alex foreign motors,523,ontario street,18015,bethlehem,pa,us,us
,2,johannes-weyrauch-platz,04178,leipzig,,,
abloc - arrive l water bottle - flash green. brick lane bikes: the official website,118,bethnal green road,e2 6dg,london,,united kingdom,
image line painting,4508,6 street ne,t2e 3z7,calgary,alberta,canada,
"landestheater coburg, reithalle",3,schlossplatz,96450,coburg,,,
hotel mastino,16,corso porta nuova,37122,verona,véneto,italia,
yh beijing,500,haight street,94117,san francisco,ca,,
,98,cours carnot,13300,salon-de-provence,bouches-du-rhône,france,
,613,sagamore pkwy,47906,west lafayette,in,united states,
,4311,kemp blvd,76308,wichita falls,tx,us,us
,3,adalbert-stifter-kai,4820,bad ischl,,at,at
westchester county center,198,central ave,10607,white plains,ny,us,us
embassy suites by hilton philadelphia airport,9000,bartram avenue,19153,philadelphia,pennsylvania,united states,
,21001,n. tatum boulevard,85050,phoenix,az,united states of america,
st. margaret mary,3970,n 92nd st.,,milwaukee,wisconsin,,
,9,podwale grodzkie,80-895,gdansk,pomorskie,polonia,
,175,north jackson avenue,95116,san jose,california,us,us
alpeiner nature resort,15,moos,6167,neustift im stubaital,tirol,österreich,
m1 lauenau,14,magirusstraße,31867,lauenau,,,
mathnasium of new berlin,15417,west national avenue,53151,new berlin,wisconsin,us,us
,1920,chestnut st,37408,chattanooga,tennessee,usa,
,1014,west 36th street,21210,baltimore,md,us,us
‪h10 puerta de alcala‬,66,calle de alcala,28009,مدريد,,إسبانيا,
fairfield inn by marriott columbia northwest harbison,320,columbiana drive,29212,columbia,sc,us,us
heritage center,108,center st s,56149,lake benton,mn,united states,
,19,rheingasse,4058,basel,,,
,126,gießener straße,35415,pohlheim,,,
,163,sandstraße,57072,siegen,,de,de
cavendish school,,,,london,,gb,gb
best western kirkwood inn,1200,s kirkwood rd,63122,kirkwood,missouri,united states,
,154,southgate street,gl1 2ex,gloucester,gloucestershire,uk,uk
club quarters hotel in philadelphia,1628,chestnut street,19103,philadelphia,pennsylvania,usa,
,9,christian-necker-str.,89597,munderkingen,,,
,116,brougham street,6011,wellington,wellington,nueva zelanda,
,1006,maple avenue,43701,zanesville,ohio,,
sachsenwald hotel reinbek,4-8,hamburger str.,21465,reinbek,,,
,2300,n miami ave,33127,miami,fl,,
residence inn by marriott vancouver downtown,1234,hornby street,v6z 1w2,vancouver,,canada,
,7,rue racine,84000,avignon,,france,
paramount theatre - oakland,2025,broadway,94612,oakland,ca,us,us
merrick golf course,2550,clubhouse road,11566,merrick,ny,,
cambridge court senior living,711,matador lane,75149,mesquite,tx,,
,270,marsh road,lu3 2tu,luton,luton,united kingdom,
"hampton inn pullman, wa",1190,se bishop blvd,,pullman,,us,us
,2,lansdowne street,02215,boston,massachusetts,united states,
,10803,se kent-kangley rd,98030,kent,wa,,
одеський академічний театр музичної комедії (concert.ua),3,вул. пантелеймонівська,,одеса,,україна,
green elephant,57,milton road,,kapsztad,kapsztad,republika południowej afryki,
knockout,3223,mission street,94110,san francisco,ca,,
bauernhof am mechtenberg,5,am mechtenberg,45309,essen,,,
,14100,east wade hampton boulevard,29651,greer,south carolina,,
,200,frankenstraße,90461,nürnberg,,,
,3316,13th avenue south,58103,fargo,north dakota,amerika serikat,
hotel zur post,44,neuwieder str.,56588,waldbreitbach,rheinland-pfalz,germany,
fisher's ace hardware,650,welsh rd,19006,huntingdon valley,pa,us,us
,13850,ballantyne corporate place,28277,charlotte,north carolina,us,us
surestay plus by best western humble,15617,eastex freeway,77396,humble,,united states,
"university of iowa, voxman music building",93,east burlington street,52240,iowa city,ia,united states,
royal victoria hotel,12,lungarno pacinotti,56126,pisa,toskana,italien,
,8,peterstraße,2826,görlitz,,germany,
,47,phila street,12866,saratoga springs,ny,,
best western premier castanea resort hotel,25,scharnebecker weg,21365,adendorf,niedersachsen,deutschland,
,1101,gorman street,,raleigh,north carolina,united states,
,338,viale monza,20128,milano,,,
,473,alameda lorena,01424-000,são paulo,san pablo,brasil,
,38,taupo quay,4500,whanganui,,,
,1700,palm beach lakes blvd.,33401,west palm beach,fl,us,us
,1492,missouri ave,88001,las cruces,nm,united states,
carter-finley stadium parking lots,4600,trinity road,27607,raleigh,nc,usa,
hendrick lexus charleston,2424,savannah highway,29414,charleston,sc,,
,300,east mitchell street,49770,petoskey,mi,,
,2000,town center,48075,southfield,mi,usa,
wehr nature center,9701,west college ave.,53132,franklin,,united states,
texas roadhouse,1101,lower allen dr,17011,camp hill,pa,,
,5454,dundas st w,m9b 1b4,etobicoke,,,
hotel poseidon,33,storgatan,411 31,goteborg,västra götaland,svezia,
,19,hauptstraße,4952,weng im innkreis,,,
paradox,62,telegraafstraat,5038 bm,tilburg,,nl,nl
,192,dornacherstrasse,4053,basel,,,
,6,haldenstrasse,6006,luzern,,suisse,
,6,odana ct,53719,madison,wi,,
,2401,liberty heights ave,21215,baltimore,maryland,united states,
all weather architectural aluminum,777,aldridge road,95688,vacaville,ca,united states,
,13,dorf,6167,neustift im stubaital,,,
,1128,aachener str.,50858,colonia,renania del norte-westfalia,alemania,
bernadette’s community centre,21,cooke ave,,sunshine north,victoria,australia,
la scene barbes - comedy club paris,11,rue d'oran,75018,paris,ile de france,fr,fr
,890,blossom hill rd,95123,san jose,ca,,
the statler hotel at cornell university,130,statler drive,14853,ithaca,new york,usa,
norwalk easter public library,1051,north ave.,50211,norwalk,ia,us,us
,34860,monterey ave,92211,palm desert,california,united states,
amis conclusion,15,edisonbaan,3439 mn,nieuwegein,,the netherlands,
jolly coachman neighborhood pub,19167,ford rd,v3y 2b6,pitt meadows,bc,,
chicago temple (first united methodist church),77,west washington street,60602,chicago,il,united states,
residhome paris-massy,7,rue christophe colomb,91300,massy,essonne,france,
new cumberland alliance church,148,spanglers mill road,17070,new cumberland,,united states,
,9500,south interstate 35,78748,austin,tx,,
wulffaert,103,kriekmoerstraat,9900,eeklo,,belgïe,
eurico hotel,3,c/ santa isabel,45001,toledo,,spania,
obi holzzuschnitt-service im markt gmuend,9,albrechtser str.,,gmuend,,at,at
hotel schmerkötter,70,auf dem aspei,44801,bochum,,,
st peter's college epsom,23,mountain road,1023,auckland,auckland,new zealand,
uw-milwaukee physics building,1900,e. kenwood blvd.,53211,milwaukee,wisconsin,,
the rising sun,11,everton road,sg19 2pa,potton,bedfordshire,uk,uk
,60,halifax street,5000,"adelaide, sa",,australia,
,3,market street,2380,piet retief,mpumalanga,za,za
inspire dental group - langley,6339,200 st,v2y 1a2,langley,bc,ca,ca
courtyard by marriott chicago oakbrook terrace,6,trans am plaza dr.,60181,oakbrook terrace,illinois,united states,
kings hill community centre,70,gibson drive,me19 4lg,"kings hill, west malling",kent,uk,uk
hotel colosseum,10,via sforza,00184,rome,,ý,
,3,rue oberkampf,75011,paris,,,
hamburger mary's milwaukee,730,s. 5th st.,53204,milwaukee,wi,,
northwoods golf club,201,powell road,29203,columbia,sc,,
gotham west market,600,11th avenue,10036,new york,ny,united states,
hotel carlton,5,lütge brückstraße,44135,dortmund,north rhine-westphalia,germany,
,201,fort mason,94123,"san francisco,",ca,,
potomac river running - reston,11911,democracy dr,20190,reston,va,,
,3339,w kennedy blvd,33609,tampa,fl,us,us
,550,e. van buren,85004,phoenix,az,,
,200,n. broadway,63102,st louis,mo,us,us
,199,kerpelystraße,8700,leoben,steiermark,at,at
,12920,northwest fwy,77040,houston,tx,us,us
chiropractic wellness associates llc,1313,dekalb st,19401,norristown,pa,us,us
,408,elden street,20170,herndon,va,united states,
thin man brewery,492,elmwood ave,14222,buffalo,ny,us,us
the umbrella arts center,40,stow street,01742,concord,ma,,
,44/a,via broletto,,milano,,,
,3075,carlsbad boulevard,92008,carlsbad,kalifornia,yhdysvallat,
,25369,highway 98,36526,daphne,al,,
,3900,cannon road,92010,carlsbad,california,us,us
extra space storage,1414,kalakaua ave,96826,honolulu,hi,,
decathlon herblay,12,mail des copistes,95220,herblay,,frankreich,
,319,kölner str.,51702,bergneustadt,,,
,2048,marshall ave,55104,saint paul,mn,,
marina one,580,n. federal hwy,33441,deerfield beach,,us,us
,1920,i st nw,20006,washington,dc,united states,
blaine city hall,220,indian ridge rd,37709,blaine,tn,us,us
tropic garden,10,pare vicent costa,07840,santa eulalia,ibiza,es,es
,98,gerresheimer straße,40233,flingern-nord,düsseldorf,ספרד,it
copper oven cafe & bakery,2409,west 13th street north,,wichita,ks,,
,31,am weidengraben,54296,trier,,,
chaat bhavan,165,e. el camino real,94040,mountain view,ca,,
,145,rue piuze,g4w 3m6,matane,qc,canada,za
,23,hent ar mor,29350,moelan sur mer,,,
st. georg apotheke inh. marc schmidt,28,büchenauerstr.,76646,bruchsal,,deutschland,
,4770,hoover road,43123,grove city,oh,united states of america,
alchemy comedy theater at coffee underground,1,e coffee st,,greenville,sc,us,us
arbatax park resort - cottage,49,via capri,08048,arbatax,,italie,
hotel huize koningsbosch,84,heereweg,1901 me,castricum,,the netherlands,
,7,пер. строителей,,новополоцк,витебская обл.,belarus,
spartan family chiropractic pc,1719,w grand river ave,,okemos,mi,,
,370,avenida josé manuel infante,,providencia,providencia,chile,
,202,avenida lopez portillo,24095,campeche,campeche,mexico,
,1,calle sevilla,28804,alcalá de henares,madrid,es,es
,22,konrad-celtis-straße,81369,sendling-westpark,münchen,,
,4012,central florida parkway,32837,orlando,florida,usa,
,67,wróblewskiego,41-106,siemianowice,śląskie,,
envato hq,121,king street,3000,melbourne,victoria,australia,
,128,viale europa,65010,villa raspa,,italy,
,8490,sunset blvd,90069,west hollywood,ca,,
grand hyatt kuala lumpur,12,jalan pinang,50450,kuala lumpur,,malaysia,
,61a,banbury road,,oxford,oxfordshire,gb,gb
,4,bahnhofplatz,83435,bad reichenhall,,de,de
canada est c. états-unis · 11:30    ·  rath eastlink community centre,,,--,truro,ns,ca,ca
,4,wilhelm-von-humboldt-platz,57076,siegen,,,
tangerine,11,elefantengasse,60313,frankfurt am main,,,
,3,markt,07607,eisenberg,,,
,7050,n. marks ave,93711,fresno,california,united states,
bilheimer capitol theatre,405,cleveland st,33755,clearwater,,united states,
balthazar,80,spring st,10012,new york,ny,us,us
es system k sp. z o.o.,10,wrzosowa,,wolbrom,,pl,pl
roger williams medical center   rehabilitation services,825,chalkstone ave,02903,providence,ri,us,us
"law office of lauren campoli, pllc",80,s. 8th st.,55402,minneapolis,mn,,
,1600,rockland road,19899,wilmington,delaware,германия,
sonesta es suites houston galleria,5190,hidalgo street,77056,houston,texas,united states,
eethuis wijchen,5a,burchtstraat,6602ap,wijchen,,,
tinley park credit union amphitheater,19100,ridgeland ave,60477,tinley park,il,usa,
erasmus mc onderwijscentrum,40,dr molewaterplein,,rotterdam,,nederland,
,1601,south martin luther king junior boulevard,,tallahassee,florida,united states,
rotes kreuz ortsstelle ebensee,5,alte saline,4802,ebensee,oberösterreich,österreich,
mr. g's,908,mcfarland blvd,35476,northport,al,us,us
,,,,grenoble,,france,
,8,oudevaartsgat,1671 hm,medemblik,,nl,nl
lorraine's coffee house & cafe,101,timber pointe lane,27529,garner,nc,,
rotterdam ahoy,10,ahoyweg,3084 ba,"rotterdam, nederland",,,
,196,kriegsstraße,,karlsruhe,,,
,69,belford road,eh4 3dg,edimburg,escòcia,regne unit,
,748,massachusetts avenue,46204,indianapolis,in,,
lawler brown law firm,1600,west main street,62959,marion,il,,
,222,west 51st st,10019,new york,ny,united states of america,
first african methodist episcopal church of los angeles-fame,2270,s harvard blvd,90018,los angeles,ca,,
cabarrus brewing company,329,mcgill ave nw,28027,concord,nc,united states,
,32505,golden lantern st.,92629,dana point,ca,us,us
,86,königsbrücker str.,01099,dresden,sn,de,de
dog & pony grill,1481,s main st,78006,boerne,tx,us,us
,4/6,wilhelm-weber-str.,37073,göttingen,,,
,10752,coastwood rd,92127,san diego,ca,united states of america,
greeley lofts,618,n. 2nd st.,63102,st. louis,mo,,
brookdale wayne,820,hamburg turnpike,,wayne,nj,us,us
,7400,san pedro avenue,78216,san antonio,tx,,
,29,rue curiol,13001,marseille,,france,
,270,avenue de courmayeur,74400,chamonix,haute-savoie,frankrig,
linda’s bar and grill,203,e franklin street,,chapel hill,nc,united states,
,305,north glebe road,22203,arlington,va,us,us
new ko sing,233,lincoln road,,north hykeham,,,
days inn by wyndham yuma,1671,east 16th street,85365,yuma,arizona,united states,
lia honda kingston,743,e chester st,12401,kingston,ny,us,us
radio hotel,2420,amsterdam avenue,10033,new york,new york,usa,
breakaway,33,dorpstraat,6265ak,sint geertruid,limburg,nederland,
,36,obrońców,26-600,radom,mazowieckie,,
,901,amherst street,22601,winchester,va,,
hôtel beauregard,90,sentier du bossonnet,74220,la clusaz,,france,
tivolivredenburg,11,vredenburgkade,3511 wc,utrecht,,nederland,
rydges fortitude valley,601,gregory terrace,4006,brisbane,queensland,australia,
,2101,s broadway,56073,new ulm,mn,,
,145,ingolstädterstr,85092,kösching,,de,de
powiatowy inspektorat weterynarii w radziejowie,53,brzeska,,radziejów,,pl,pl
ss cyril & methodius church,63,popieluszko court,06106,hartford,tirol,united states,
delaware eye institute,18791,john j. williams highway,19971,rehoboth beach,de,us,us
,126,luegallee,40545,düsseldorf,düsseldorf,de,de
public storage,650,4th st,32962,vero beach,fl,西班牙,uk
pillows grand boutique hotel reylof ghent,36,hoogstraat,9000,gent,východní flandry,belgie,
,2190,olympic ave,89014,henderson,nv,united states,
,1351,polk st,94109,san francisco,ca,us,us
st. valentin - apotheke martin sternberg,4,obringhauser str.,57392,schmallenberg,,deutschland,
el colonial,326,bernard,,colón,entre ríos,,
cafe-restaurant-kegeltreff marth,1,oberwarter strasse,7461,stadtschlaining,,,
lotta,12,kartäuserwall,50678,köln,,deutschland,
strange matter,929,w. grace st,23220,richmond,va,us,us
sunoco store #0877859900 4538 w stanton rd,4538,w stanton rd,48888,stanton,mi,us,us
greenside recreational - des moines,23407,pacific hwy south,98198,des moines,wa,usa,
clarendale of algonquin,2001,west algonquin road,60102,algonquin,il,,
tryon depot,22,depot street,28782,tryon,nc,united states,
,83,yarra st,3220,geelong,vic,australia,
aqualux hotel spa & suite,24,via europa unita,37011,bardolino,venetien,it,it
residence inn by marriott raleigh crabtree valley,2200,summit park ln,,raleigh,wv,us,us
walliserhof,43,gufer,6708,brand,,østrig,
hampton inn & suites bloomfield hills detroit,1951,s. telegraph rd,48302,bloomfield hills,michigan,estados unidos,
,13250,technology dr,55344,eden prairie,mn,,
america's inns & suites willowbrook,8711,fm 1960 w,77070,houston,tx,us,us
residence inn portland downtown riverplace,2115,sw river parkway,97201,portland,oregon,united states,
,273,av. pedro de valdivia,,providencia,región metropolitana,cl,cl
real colonia hotel & suites,001,gonzalez moreno,70000,colonia del sacramento,colonia,uruguay,
,45,ulmer straße,86356,neusäß-steppach,bayern,,
hotel de france wiesbaden city,49,taunusstraße,65183,wiesbaden,hesse,germany,
thewesley,81-103,euston street,nw1 2ez,london,england,united kingdom,
"bath arms, warminster",41,market place,ba12 9az,warminster,,,
defelice dental,1900,n causeway blvd,70001,metairie,la,,
public storage,1265,hillcrest road,36695,mobile,al,us,us
hampton inn charlotte-gastonia,1859,remount road,28054,gastonia,north carolina,united states,
shamokin area high school,2000,w state st,17866,coal township,pa,us,us
la côte et l'arête,25,avenue ernest-cristal,63000,clermont-ferrand,,,
,472,rua jorge americano,05083-130,são paulo,alto da lapa,brasil,
,1,an den havelbergen,17237,groß quassow,mecklenburg-vorpommern,germany,
days inn by wyndham san antonio splashtown/att center,3443,north pan am expressway,78219,san antonio,texas,estados unidos,
,144,weesperzijde,1091 et,amsterdam,,,
saarländischer städte- und gemeindetag,9,talstraße,66119,saarbrücken,,,
,5,markt,5691ar,son en breugel,noord-brabant,,
,921,sw washington street,97205,portland,oregon,,
reisemobilpartner lippe friedrich rebbe e. k.,58,wilberger str.,,horn-bad meinberg,,,
,13,plaza de santo domingo,,madrid,sardegna,,
eetcafé de tijd,53,de lind,5061 ht,oisterwijk,,nl,nl
,7,place sainte-scarbes,31000,toulouse,,france,
,8655,arlington avenue,92503,riverside,ca,us,us
bryn coed preserve,1869,flint road,19425,chester springs,pa,united states,
цена на номер vip люкс в отеле «печоры-парк» г. печоры,2 б,улица гагарина,181500,печоры,псковская область,россия,
new generation hostel milan center,3,via renzo bertoni,,mailand,mailand,italien,
eble park ice arena,19400,w bluemound rd,53045,brookfield,wi,united states,
watkinson school,180,bloomfield avenue,06105,hartford,connecticut,,
,162,mountain road,01541,princeton,ma,,
,150,motorworld drive,18702,wilkes-barre,pennsylvania,,
sanders tweewielers,76,gierstraat,2011 gg,haarlem,,英国,
,1,berliner platz,35390,gießen,,,
jay hodge chevrolet of muskogee,144,w shawnee street,74401,muskogee,ok,us,us
,8150,north 61st avenue,85302,glendale,az,us,us
dariusz rusowicz automania firma motoryzacyjna,15,rzemieślnicza,55-095,mirków,,polska,
hofmann feinkost,11,auf dem witting,32369,rahden,,deutschland,
,23,belwederska,00-761,warszawa,,pl,pl
mail processing associates | home – lakeland,430,n wabash ave,33815,lakeland,fl,,
terrassencafe koberger,17,waldweg,4864,attersee am attersee,oberösterreich,österreich,
moksha yoga,3121,e. lincoln dr.,85016,phoenix,az,united states,
norah bladel,34,sniederslaan,5531 el,bladel,,nederland,
holiday inn express & suites manchester-airport,1298,south porter street,03103,manchester,new hampshire,united states,
,54-56,bedminster parade,bs3 4hs,bristol,,united kingdom,
sri siva vishnu temple,6905,cipriano road,20706,lanham,md,united states,
albany marriott,189,wolf road,12205,albany,ny,us,us
hotel cafetto,# 22-64,carrera 8,660004,pereira,risaralda,colombia,
,77,набережная улица,,волжский,ru,,
jefferson house apartments,4,east 32nd street,21218,baltimore,纽约州,,
,3587,clover ln,16105,new castle,pa,united states,
,8030,south 1825 west,84088,west jordan,utah,us,us
institut für contactlinsen,133,eversbuschstraße,80999,münchen,,de,de
expressions dental™,41,crowfoot rise nw,t3g 4p5,calgary,alberta,canada,
paul-bäck-haus saal,6,kemptener straße,88178,heimenkirch,,,
viaros hotel apartments,31,minoos,,tolo,,gr,gr
,36,denham road,3913,tyabb,vic,au,au
hofladen biohof bursch,31,weidenpeschweg,53332,bornheim-waldorf,,,
t-mobile center,1407,grand blvd,64106,kansas city,mo,us,us
tru by hilton syracuse north airport area,417,7th north street,13088,liverpool,new york,united states,
days inn by wyndham camarillo ventura,165,east daily drive,93010,camarillo,ca,us,us
"casa della salute di borgo panigale, via ercole nani, borgo panigale, bo",10,via ercole nani,40132,borgo panigale,emilia-romagna,it,it
autonation ford panama city,730,west 15th street,32401,panama city,fl,,
york brewery,12,toft green,yo1 6jt,york,north yorkshire,,
reka-feriendorf sörenberg,59,rothornstrasse,6174,sorenberg,,suisse,
travel charme ifen hotel,6,oberseitestraße,6992,hirschegg,wyoming,österreich,
gospel forum,9,junghansstrasse,70469,stuttgart,,germany,
ingelecor | instalaciones eléctricas,4,c. rigoberta menchú,14011,córdoba,córdoba,españa,
hotel verviers van der valk,4,rue de la station,4800,verviers,,belgium,
christian brothers automotive arnold,2190,church road,63010,arnold,mo,,
bishop o'connell high school,6600,little falls rd,22213,arlington,va,us,us
,1,rue de la chalotais,22220,tréguier,,france,
,184,plesmanlaan,2497 cc,den haag,,netherlands,
enterprise rent-a-car,1,rue la seigliere,33800,bordeaux,nouvelle-aquitaine,frankrijk,
museo della seta di como,9,via castelnuovo,22100,como,co,it,it
,99,uhlandstraße,75417,mühlacker,,,
automart superstore,1400,n arizona ave,85225,chandler,az,us,us
kringloopwinkel rataplan,25,essenstraat,7418 bm,deventer,,,
punto bcn,65,c/ muntaner,,barcelona,,spain,
,908,russell rd,42728,columbia,ky,,
healdsburg golf course at tayman park,927,south fitch mountain rd,,healdsburg,ca,,
,46,raadhuisplein,3771 er,barneveld,,nederland,
hardee's 1500880,1007,n john wayne dr,50273,winterset,ia,us,us
covo dei saraceni,5,via regina giovanna,84017,positano,kampanien,it,it
springhill suites by marriott naples,3798,white lake blvd,34117,naples,fl,,
villa dei quintili - santa maria nova,1092,via appia nuova,00178,roma,,italia,
mcallen performing arts center,801,convention center blvd.,78501,mcallen,tx,us,us
holiday inn express & suites canton,3950,south lotz road,48188,canton,michigan,united states,
,2009,main street,95540,fortuna,ca,us,us
,6400,airline dr.,70003,"metairie,",us,,
‪letoh letoh gran vía‬,41,calle leganitos,28014,مدريد,,إسبانيا,
,700,northeast 2nd avenue,33132,miami,florida,united states,
,1,raymond plaza w,,newark,new jersey,us,us
"schützenmatte (berne, gare cff)",,,3012,berne,berne,switzerland,
,1,warriors way,94158,san francisco,ca,united states,
st. anne catholic church,9091,prairie ridge blvd.,53158,pleasant prairie,,united states,
dollar bazaar plus,30,king st w,,brockville,on,ca,ca
springhill suites portland airport,11922,ne airport way,97220,portland,oregon,stati uniti,
united tire & service of phoenixville,637,bridge st,19460,phoenixville,pa,us,us
cafe-confectionery hofstätter,27,marktplatz,4680,haag am hausruck,,,
doubletree suites by hilton dayton - miamisburg,300,prestige pl,45342,miamisburg,oh,,
,11431,forest avenue,50325,clive,,usa,
mairie,17,rue de la mairie,44590,saint-vincent-des-landes,,,
,1,verschansingstraat,,antwerpen,antwerpen,be,be
,24,rue de stalingrad,95120,ermont,,france,
,3460,macon road,31907,columbus,georgia,mỹ,
,6,semaphore road,5019,semaphore,sa,,
mercure antwerp city south,94,desguinlei,2018,antwerpen,,belgia,
,1305,massachusetts ave,02476,arlington,ma,usa,
little luxuries,212,s main street,60540,naperville,il,,
,39,hersbruckerstr.,91233,neunkirchen am sand,bayern,de,de
international quilt museum,1523,n. 33rd st,68583,lincoln,ne,us,us
safeguard self storage - philadelphia - oak lane,1499,66th avenue,19126,philadelphia,pa,,
the westin austin downtown,310,east 5th street,78701,austin,texas,usa,
,21,whitechapel road,e1 1du,london,,regno unito,
blackstone-millville school district,175,lincoln street,01504,blackstone,ma,,
motel 6 san jose airport,2081,north 1st street,95131,san jose,ca,us,us
allard dental centre,21183,88 ave,v1m 2g5,langley twp,bc,ca,ca
,4000,wisconsin avenue northwest,20016,washington,district of columbia,usa,rs
sugar maple,441,e. lincoln avenue,53207,milwaukee,wi,united states,
massanutten regional library,174,s main st.,22801,harrisonburg,va,,
home2 suites springdale cincinnati,325,pictoria dr,45246,springdale,oh,us,us
the hague marriott hotel,30,johan de wittlaan,,l'aia,,nl,nl
relais san maurizio,39,località san maurizio,12058,santo stefano belbo,piemont,it,it
pizza zaga,20,markt,2860,sint katelijne waver,,,
excelsior brewery company,421,3rd st,55331,excelsior,,,
o'reilly auto parts,5504,w 3500 s,84120,west valley city,ut,,
,2375,skaggs road,23139,powhatan,va,,
fifth third bank & atm,2225,versailles road,40504,lexington,ky,,
residencial aire patagon,355,cristobal colon,,coyhaique,,chile,
,500,griswold st,48226,detroit,mi,us,us
aldi (süd) gmbh & co. ohg,91,königswinterer str.,53639,königswinter,,,
townhouse design hotel & spa,5,sint maartenslaan,6221 av,maastricht,limburg,nederland,
edward l. kelly leadership center,14715,bristow rd.,20112,manassas,va,united states,
turbo haus,2040,saint denis st,,montreal,qc,canada,
baymont by wyndham denver international airport,6805,north argonne street,80249,denver,colorado,états-unis,
hutchinson shores resort & spa,3793,ne ocean blvd.,34957,jensen beach,florida,united states,
,15401,north may avenue,73013,edmond,ok,us,us
best western solhem hotel,3,solhemsgatan,621 58,visby,,sverige,
yha adelaide central,135,waymouth street,,adelaida,australia meridional,australia,
hotel römerhof,25,sophienstr.,76530,baden-baden,baden-wurttemberg,đức,
,17,meininger landstraße,97638,mellrichstadt,,de,de
chase park plaza hotel,212,n kingshighway blvd,63108,st. louis,missouri,,
smilestone dental,345,robson st,v6b 6b3,vancouver,bc,ca,ca
,3131,old perth road,k0a 1a0,almonte,ontario,canada,
,200,bergerweg,1817 mn,alkmaar,noord-holland,nl,nl
belmont village turtle creek,3535,n. hall street,75219,dallas,texas,suisse,it
holiday inn express 智利圣地亚哥,2929,av. vitacura,00000,santiago,,chile,
,90-92,neptunusstraat,,den haag,,,
,1901,ed temple boulevard,37208,davidson-county,tennessee,united states,
courtyard nashville downtown,170,4th avenue north,37219,nashville,tn,us,us
kameha grand bonn,1,am bonner bogen,53227,bonn,,deutschland,
the point chop house & lounge,3326,portola dr,95062,santa cruz,ca,us,us
downtown art place,111,e aurora st,49938,ironwood,mi,united states,
,1,via ciucca,"90045,","cinisi,",,italy,
,1802,hartford avenue,79409,lubbock,texas,,
cooley godward kronish llp,3175,hanover st.,94304,palo alto,ca,,
esso tankstelle erfurt - weimarische str. 36,36,weimarische str.,99099,erfurt,,de,de
damascus,7550,ramey rd.,43011,centerburg,oh,united states,
,56,gosauseestraße,4824,gosau,oberösterreich,österreich,
aqua hotel,3016,windamar street,33304,fort lauderdale,florida,abd,
lucky bike dortmund,108,hermannstraße,44263,dortmund,nordrhein-westfalen,deutschland,
casa de balea ⭑⭑⭑,44,rafael juan,15130,corcubión,a coruña,spain,
,23,linenhall street,bt28 1fj,lisburn,,,
catholic memorial high school,235,baker st,02132,west roxbury,ma,us,us
hotel schimmelpenninck huys,53,oosterstraat,9711 nr,groningen,,niederlande,
,1001,elmwood avenue,54901,oshkosh,wi,united states,
baglioni hotel regina - the leading hotels of the world,72,via vittorio veneto,00187,rome,,italy,
an die musik live!,409,north charles street,21201,baltimore,md,us,us
westeneng verbeek makelaardij hilversum,22,groest,1211 ec,hilversum,,netherlands,
,515,williams st.,49090,south haven,mi,,
drury plaza hotel in santa fe,828,paseo de peralta,87501,santa fe,new mexico,mỹ,
,1,księdza piotra ściegiennego,45-709,opole,,polska,
,299-301,prosperstraße,46238,bottrop,nw,de,de
park place hotel,300,east state street,49684,traverse city,michigan,united states,
bar willis wilhelm-gefeller-bildungs-und tagungszentrum,44,deisterallee,,bad münder,,germany,
carl's jr. 1100228,271,east willow street,90806,long beach,ca,us,us
,71-75,shelton street,wc2h9jq,covent garden,london,united kingdom,
optik wachter,6,marktstrasse,36037,fulda,,de,de
"intercontinental perth city centre, an ihg hotel",815,hay street,6000,perth,australia occidental,australia,
mariners court hotel sydney,44-50,mcelhone street,2011,sydney,new south wales,australia,
4r playa park,1,carrer del vendrell,43840,salou,,spanje,
turner law group,2312,university blvd,35401,tuscaloosa,al,,
,14,tafingerstraße,71665,vaihingen/enz,baden-württemberg,deutschland,
,,,,안성시,경기,kr,kr
hotel de la poste - hotel per matrimoni,14,piazza roma,32043,cortina d'ampezzo,belluno,,
spark coworking kansas city,1475,walnut st.,64106,kansas city,mo,stati uniti,ru
barber his premium barbershop amsterdam herenkapper barbier baardkapper scheerwinkel,86,utrechtsedwarsstraat,1017wh,amsterdam,,nederland,
,2804,opryland drive,37214,nashville,tn,united states of america,
,,,02155,medford,massachusetts,united states,
sinfonia eiscafe,7,jüdenhof,01067,dresden,sn,,
hotel gut matheshof,1,hans-nowak-ring,92286,rieden,,duitsland,
the old market,11a,upper market street,bn3 1as,brighton,,gb,gb
,22710,e country vista dr,99019,liberty lake,wa,,
holiday inn express & suites halifax - bedford,980,parkland dr,b3m 4y7,halifax,ns,україна,se
,40-44,bismarckstr.,,bad kissingen,,deutschland,
st. louis park high school,6425,west 33rd street,55426,st. louis park,mn,united states,
,15,powązkowska,01-797,warszawa,mazowieckie,,
,1000,w. garden ave.,83814,coeur d'alene,id,,
,2,staszica,43-170,łaziska górne,,,
wilhelm hack museum,23,berliner straße,67059,ludwigshafen,,deutschland,
,2,rue jules ferry,83170,brignoles,,france,
ulrike nigmann,8,obertor,35083,wetter (hessen),,deutschland,
evangelische kindertageseinrichtung kinder-wichern-haus (kiwi haus),69,weinbrennerstraße,76185,karlsruhe,baden-württemberg,deutschland,
,500,southwest 177th avenue,33194,miami,florida,united states,
,6,viale silvani antonio,40122,bologna,emilia romagna,,
,101-2275,upper middle rd e,l6h 0c3,oakville,on,canada,
shoryu ramen kensington,190,kensington high st,w8 7rg,london,london,gb,gb
sala pícaro,6,cadenas,45001,toledo,toledo,es,es
afas live,,,1101 ds,"amsterdam-zuidoost, amsterdam",,nl,nl
,18,marktplatz,75365,calw,,de,de
fairfield inn & suites albany airport,168,wolf road,12205,albany,new york,usa,za
,2,nordstraße,86381,krumbach,by,de,de
gillman chrysler jeep dodge,10585,w sam houston pkwy s,77099,houston,tx,,
,617,lexington st,02452,waltham,massachusetts,us,us
,10,durham road,03820,dover,nh,,
,3,badhuiskade,1031 kv,amsterdam,north holland,netherlands,
yha london central,104,bolsover street,w1w 5nu,london,england,united kingdom,
,169,route de ferney,1218,ginevra,,ch,ch
"backstage, club",6,reitknechtstr.,80369,münchen,,,
,2831,boardwalk,08401,atlantic city,new jersey,amerika serikat,
,333,alabama st,46204,indianapolis,in,us,us
,1,musterhauspark,5301,eugendorf,,,
baywa tankstelle  passau-grubweg,6,baywa str.,94034,passau-grubweg,,,
,233,dickinson street,08638,trenton,nj,,
,3100,quakerbridge road,08619,hamilton township,nj,us,us
half price books,1075,e golf road,60173,schaumburg,il,,
,29,papendiek,,göttingen,,,
lucas oil stadium parking lots,500,south capitol avenue,46225,indianapolis,in,us,us
,10,bahnhofstrasse,8708,männedorf,zh,ch,ch
,8606,wesley street,75402,greenville,texas,,
hakata ramen,265,swedesford rd,19087,wayne,pa,us,us
chipotle mexican grill,2940,s eagle rd,18940,newtown,pa,us,us
verre d'art de la bresle,23,route d'eu,76340,blangy-sur-bresle,,,
holiday inn manchester - city centre,25,aytoun street,m1 3dt,manchester,england,united kingdom,
,29,main street,20186,warrenton,va,,
,405,west high street,43526,hicksville,oh,,
robertson house inn,10,broad st,,brockville,on,ca,ca
,8509,delmar blvd,63124,saint louis,mo,,
anaheim convention center,800,w katella ave,w8 7rg,anaheim,ca,united states,
inntel hotels amsterdam centre,19,nieuwezijds kolk,1012 pv,amsterdam,north holland,netherlands,
kronen-apotheke,107,kölnstraße,,sankt augustin,nrw,germany,
link associates,1452,29th st.,50266,west des moines,ia,,
granada hostel,2 75,calle 11,111711,bogota,,colombia,
wein- und sekthaus volker und bernd schreieck,38,hartmannstraße,67487,maikammer,,,
burg frankenberg,45,goffartstraße,52066,aachen,,deutschland,
its installations-technik stückemann gmbh & co. kg,13,enniskillener straße,33647,bielefeld,,de,de
alpinhotel monte superior,64,gampele,6563,galtür,kuzey ren-vestfalya,österreich,
hotel eden palace au lac,11,rue du theatre,,montreux,vaud,switzerland,
hotel frantz,5,peter myndes backe,11646,stoccolma,,svezia,
,1018,116th ave ne,98004,bellevue,wa,,
les bains et les cuisines d'alexandre,178,rue lecourbe,75015,paris,,fr,fr
,1225,4th st. ne,20002,washington,dc,usa,
weiser hall,500,church street,48109,ann arbor,mi,united states,
dollar,17,trumbiceva obala,21000,split,splitsko-dalmatinska,croatia,
,720,east 2nd avenue,42101,bowling green,kentucky,us,us
bartle agnia praxis für physiotherapie,22,eschenstr.,82024,taufkirchen,,,
black angus steakhouse,2770,w chandler blvd,85224,chandler,az,us,us
expo hotel milan &  spa,4,via achille grandi,20015,parabiago,,,
hopewell public library,13,e broad street,,hopewell,nj,united states,
the pearl hotel,1410,rosecrans street,92106,san diego,kalifornia,yhdysvallat,
,60,the broadway,sw19 1rq,wimbledon,london,,
,34,rúa da república de el salvador,15701,santiago de compostela,santiago de compostela,spain,
,5a,pawia,31-154,kraków,małopolskie,,
spartanburg memorial auditorium,385,north church street,29303,spartanburg,sc,usa,
,2,atłasowa,15-001,białystok,,polska,
the whittaker,4755,fauntleroy way,98116,seattle,wa,,
,1216,duck road,27949,duck,nc,us,us
école maternelle publique dieppe,23,rue de dieppe,68200,mulhouse,,,
,2131,st joseph blvd,k1c 1e7,ottawa,ontario,γερμανία,
"parkhotel mondschein, a member of design hotels",15,via piave,39100,bolzano,bolzano,italy,
extra space storage,222,san pedro ave,95037,morgan hill,ca,us,us
eiscafe cortina ii,3,vor dem haagtor,72070,tübingen,,deutschland,
,2091,fenton logistics park,63026,fenton,missouri,us,us
roulottes baie des chaleurs (vente),171,route 132 est,g0c 2b0,new richmond,québec,,
dairy queen grill & chill (5969 chalkville rd),5969,chalkville rd,35235,birmingham,al,us,us
,9,bürgermeister-plambeck-str.,25709,marne,marne,,
karlstor-kino,3,marlene-dietrich-platz,69126,heidelberg,,,
bronx zoo,2300,southern boulevard,10460,bronx,ny,united states,
,2,haig road,tn16 3lj,biggin hill,,united kingdom,
,11660,administration dr,63146,"st. louis,",mo,,
,8808,centre park drive,21045,columbia,md,united states,
,9000,ming ave,93311,bakersfield,ca,,
land gut höhne,253,düsseldorfer str.,40822,mettmann,nordrhein-westfalen,deutschland,
,33,rua sá noronha,4050-159,porto,,portugal,
,11,c. conde cifuentes,18005,granada,,es,es
"knetzgau, schloss oberschwappach",6,schloßstraße,97478,knetzgau,,de,de
molesworth arms hotel,38,molesworth street,pl27 7dp,wadebridge,,,
ap pizza street food napoletano,61,grand rue,7000,mons,,,
avalon cove,444,washington boulevard,07310,jersey city,new jersey,us,us
b&b hotel dortmund-messe,106,wittekindstr.,44139,dortmund,renania del norte-westfalia,alemania,
lakeland spice cuisine,81,main street,,keswick,,,
,1250,e chapman ave,92831,fullerton,ca,,
,41,henshaw street,ol1 1nh,oldham,oldham,united kingdom,
ninety nine cents only stores,2320,fletcher parkway,92020,el cajon,ca,,
,32h,keizer karelplein,6511 nh,nijmegen,,nl,nl
,8,via del bosco rinnovato,,assago,mi,it,it
hertz,9,c/princesa,28008,madrid,madrid,spain,
,99,village drive,28546,jacksonville,nc,,
,160,12th ave se,73071,norman,ok,,
,311,chestnut street,37402,chattanooga,tennessee,usa,
,9025,e kenyon ave,80237,denver,co,,
hotel marco polo,6,via sant'antonio,37122,verona,veneto,italia,
,93,eigelstein,50668,innenstadt,köln,,
texarkana high school,1500,jefferson ave,71854,texarkana,ar,,
albertsons,6560,south federal way,83716,boise,id,,
motel 6 mesa south,1511,south country club drive,85210,mesa,arizona,estados unidos,
,390,smith st,3066,"collingwood, melbourne",victoria,australia,
the asian cajun,2400,w alameda ave,80223,"denver, co",co,us,us
ramada by wyndham & suites south padre island,6200,padre boulevard,78597,south padre island,texas,estados unidos,
hill funeral home,111,godfrey street,19550,rehrersburg,,united states,
,6,lessingstraße,90443,nürnberg,,,
mercure marseille centre prado hotel vélodrome,11,avenue de mazargues,13008,marseille,,france,
,12,boulevard royal,2449,luxembourg,,luxembourg,
,44,storgatan,302 43,halmstad,,,
,1100,lumiere place boulevard,63102,saint louis,missouri,yhdysvallat,
doubletree by hilton la torre golf & spa resort,6,calle anchoa,30709,roldán,,españa,
,6444,montgomery street,12572,rhinebeck,new york,,
quality inn o'connell,197-199,o'connell street,5006,adelaide,south australia,australia,
,4,friedhofstraße,97724,burglauer,,,
palazzo pallavicini,24,via san felice,,bologna,emilia-romagna,it,it
,1021,northeast grand avenue,97232,portland,oregon,usa,
palacete alameda,45,calle general margallo,10003,cáceres,,espanha,
,1318,fairview blvd.,37062,fairview,tn,,
,19,wschowska,64-115,święciechowa,,polska,
,735,n water st,53202,milwaukee,wi,usa,
,1,wallstrasse,55122,mainz,rp,de,de
texas roadhouse,4707,dillon drive,81008,pueblo,colorado,us,us
,433,chestnut street,19106,philadelphia,pennsylvania,usa,
vistoso resort and golf casitas,655,w vistoso highlands drive,85755,oro valley,az,,
,4350,rosewood dr,94588,pleasanton,ca,usa,
,1526,woodruff rd,29607,greenville,south carolina,united states,
,3503,s. harbor blvd,92704,orange county,ca,us,us
canadian tire,839,yonge st,m4w 2h2,toronto,on,,
mahn- und gedenkstätte steinwache,50,steinstr.,44147,dortmund,,deutschland,
hilton garden inn albany airport,800,albany shaker road,12211,albany,new york,united states,us
,3,via sassari,09123,cagliari,sardegna,italy,
,41,c/ gran vía,28013,madrid,madrid,spanien,
,3,raiffeisenstraße,97080,würzburg,bayern,germany,
bösch gmbh & co. kg,2,hochweg,83329,waging am see,,,
,1717,marion street,29201,columbia,sc,us,us
,5 bis,rue des anciennes mairies,,nanterre,,,
,7,overhoeksplein,1031 ks,ámsterdam,holanda septentrional,holanda,
,13/14,thomaskirchhof,04109,leipzig,saxónia,alemanha,
,99,adelaide ave.,11940,east moriches,ny,united states,
residence inn los angeles burbank/downtown,321,ikea way,91502,burbank,california,usa,
,292,via vittorio emanuele ii,18012,bordighera,liguria,,
,130,fulton street west,49503,grand rapids,mi,united states of america,
au prince royal,28,koning albert i-plein,3970,leopoldsburg,,belgië,
,6820,hollywood blvd,90028,los angeles,californie,états-unis,
gasthof betenmacher,14,brunnbachweg,5303,thalgau,salzburg,österreich,
kitchen garden cafe,17,york rd,b14 7sa,birmingham,,united kingdom,
"hilton san diego mission valley, san diego, north america",,,,san diego,,,
,9,marknadsvägen,254 69,ödåkra,,,
romantic riversong inn,1766,lower broadview rd,80517,estes park,colorado,united states,
,55,s main st,28675,sparta,nc,,
luna palace cinema windsor,98,stirling hwy,6009,nedlands,,australia,
tempur-pedic chicago,2191,n clybourn ave,60614,chicago,il,us,us
lake spa hotel seeleiten,30,weinstraße,39052,kaltern,trentino-südtirol,italien,
,122,dewitt center,02120,boston,ma,,
christ hospital inc,2139,auburn ave,45219,cincinnati,oh,,
,1,санаторная,,екатеринбург,,россия,
coast capri hotel,1171,harvey ave,v1y 6e8,kelowna,bc,canada,
,1535,broadway,10036,new york city,utrecht,usa,ru
,s1618,state rd 35,,"alma, wi 54610",,,
jw marriott parq vancouver,39,smithe street,v6b 1c1,βανκούβερ,british columbia,καναδάς,
,2783,n shiloh dr,72704,fayetteville,,,
wendy's,3305,w college dr,82007,cheyenne,wy,us,us
,14,werner-von-siemens-ring,85630,grasbrunn,,,
bowlero north scottsdale,7000,east mayo boulevard,85054,phoenix,az,,
,67,woodstock rd,ox2 6hj,oxford,,united kingdom,
цех,10л,ул. подгорная,,gomel,,,
,580,fort road,98948,toppenish,wa,us,us
baymont by wyndham washington,7,cumberland drive,47501,washington,in,united states,
,112,new york,11776,port jefferson station,new york,,
le robinet d'or,17,rue robert blache,75010,paris,,fransa,
,289,carrer de còrsega,08008,barcelona,,españa,
nh dresden neustadt,43,hansastr.,01097,dresden,saxony,germany,
,2300,colony drive,02169,quincy,ma,,
,1,dr.-kurt-schumacher-str.,90402,nürnberg (nuremberg),bavaria,đức,
hilton garden inn las colinas,7516,las colinas boulevard,75063,irving,tx,us,us
lindenhof gmbh,28,weinmeisterstraße,4582,spital am pyhrn,oberösterreich,österreich,
,7a,marconistraat,7903 ag,hoogeveen,,,
afas live,590,arena boulevard,1101 ds,amsterdam,,netherlands,
,3799,las vegas blvd south,89109,las vegas,nv,united states of america,
mclean community center,1234,ingleside ave,22101,mclean,va,,
violet valley bookstore,303,north main street,38965,water valley,ms,us,us
carmax,4300,mchenry avenue,95356,modesto,ca,,
olivers town estate agents,189,kentish town road,nw5 2ju,london,greater london,gb,gb
,200,henry clay avenue,70118,new orleans,la,,
,26,zeppelinstr.,78244,gottmadingen,,,
,2b,krasnoglinska,,bobrowniki,,,
redding civic auditorium,700,auditorium dr,96001,redding,ca,us,us
,9810,103a avenue nw,t5j 0g2,edmonton,alberta,canada,
blumenhaus klotzsche,1,an der kohlenstraße,09599,"freiberg, sachsen",,deutschland,us
zanhotel tre vecchi,47,via indipendenza,40121,bologna,bologna,italien,
daily's croissanterie,21,lange kerkstraat,4461jg,goes,,,
,48,sonderburgstr.,40545,düsseldorf,renania del norte-westfalia,alemania,
kreisverband bochum e.v.,8,an der holtbrügge,44795,bochum,,,
domaine de la corniche,5,route de la corniche,78270,rolleboise,,france,
,4205,east fm 4,76031,cleburne,tx,,
safe harbor estate law,3240,rice street,55126,st. paul,mn,,
hotel-gasthaus-alte-schmiede,12,hauptstr.,38312,heiningen,,,
,12,staines road,tw2 5ah,twickenham,london,,
mount royal hotel,138,banff avenue,t1l 1a7,banff,alberta,canada,
hin & hair by michelle bähr,3,bahnhofstraße,69221,dossenheim,baden-württemberg,deutschland,
,33,raggio dello scirocco,33054,lignano pineta,,,
georgetown infiniti,6901,s interstate 35,78626,georgetown,tx,,
brothers lock & safe,607,wall st,r3g 2t5,winnipeg,mb,ca,ca
,3,brusselsesteenweg,3020,herent,,be,be
caesars superdome,1500,sugar bowl drive,70112,new orleans,la,us,us
nordic valley ski resort,3567,nordic valley way,84310,eden,ut,united states,
river of life church,4855,forest grove drive,52722,bettendorf,ia,united states,
later alligator,2145,market st,26003,"wheeling, wv",wv,us,us
hotel aparthaus select messe,55,kronsbergstr.,30880,laatzen,,,
pizzeria di napoli,191,troonstraat,1050,elsene,brussels hoofdstedelijk gewest,be,be
herts plaice,117,high street,,hoddesdon,hertfordshire,gb,gb
"federal reserve bank of richmond, baltimore branch",502,south sharp street,21201,baltimore,md,united states,
kölnotel hostel,350,venloer str.,50823,köln,nordrhein-westfalen,deutschland,
,3141,thatcher ave,60171,river grove,illinois,united states,
,2002,veterans blvd.,31021,dublin,ga,,
piscataqua animal hospital & pet supply,103,state road,03904,kittery,me,us,us
,9819,horn rd.,95827,sacramento,ca,,
,154,putney high street,sw15 1rs,putney,london,,
hotel imperial,4,calle del rellano de san antonio,46400,cullera,,,
,41,bahnhofstraße,32105,bad salzuflen,nordrhein-westfalen,deutschland,
,5333,prairie stone parkway,60192,hoffman estates,il,,
,123,e. main st.,95030,los gatos,ca,,
hampton inn las vegas/north speedway,2852,east craig road,,north las vegas,,us,us
,1051,greene street,29201,columbia,sc,united states of america,
queensland museum tropics,70-102,flinders street,4810,townsville,queensland,australia,
proctors theatre,432,state st.,12305,schenectady,ny,us,us
,500,ar-44,72333,elaine,ar,usa,
ristorante tonio,161,piazza mercatale,,prato,po,,
,602,university ave,53715,madison,wi,united states,
grace episcopal church,1100,washington street,,bath,,,
nh mannheim,146,seckenheimer strasse,68165,mannheim,baden-württemberg,duitsland,
hilton vacation club scottsdale villa mirage,7887,east princess boulevard,85255,scottsdale,arizona,stati uniti,
gästehaus zum lamm garni,56,dorfstraße,89143,blaubeuren,,deutschland,
identity brewing co.,108,s. union st.,49684,traverse city,mi,united states,
landmark center – (f.k. weyerhaeuser auditorium),75,w 5th st,55102,st paul,,united states,
‪sporthotel & resort grafenwald daun vulkaneifel‬,1,im grafenwald,54550,‪daun‬,راينلاند بالاتينات,ألمانيا,
,924,s kerr blvd,74955,sallisaw,ok,,
clinica veterinaria il poggetto,2,via celso,,firenze,toscana,italy,
burdette hardware,124,n main street,29644,fountain inn,sc,,
st. charles community college,4601,mid rivers mall drive,63376,cottleville,mo,united states,
holiday inn new york city wall street an ihg hotel,51,nassau st.,10038,new york,ny,,
labyrinth books,122,nassau street,08542,princeton,nj,united states,
warehouse on watts,923,north watts street,19123,philadelphia,pa,united states,
"van cleef engineering associates, llc",501,n main st,18901,doylestown,pa,,
dunkin',101,hospitality place,37663,kingsport,tn,us,us
casino arizona,524,n 92nd st,85256,scottsdale,az,,
hilton garden inn rome airport,2,via vittorio bragadin,00054,fiumicino,rome,italie,
suntrust bank,405,manning rd e,20607,accokeek,md,,
dunkin' donuts,7,exeter rd,,epping,nh,,
pj's 25 hour towing,1425,rensen st,,lansing,mi,,
"hota, home of the arts",135,bundall rd,4217,surfers paradise,queensland,australia,
fish with you chinese sauerkraut fish,#1233,burnaby,v5h 2a9,burnaby,bc,ca,ca
,230,hoe street,e17 3ay,walthamstow,greater london,uk,uk
doubletree by hilton new orleans airport,2150,veterans memorial boulevard,70062,kenner,louisiana,united states,
own a car,5788,n blackstone ave,93710,fresno,ca,,
the comedy clubhouse,1462,n. ashland,60622,chicago,il,united states,
regionalplatzl,19/2,hauptstraße,3372,blindenmarkt,ut,österreich,
,223,porta-claudia-strasse,6108,scharnitz,,at,at
hamptons at east cobb,1523,roswell road,30062,marietta,ga,usa,
,1,bottchenbachstraße,,sangerhausen,,,
providence,707,providence way,47129,clarksville,in,us,us
,1200,west ave,33139,miami beach,fl,,
regions bank,891,hillcrest road,36695,mobile,al,,
,801,w bender blvd,88240,hobbs,nm,,
northside high school,19230,northside pkwy,35475,northport,al,us,us
larimer lounge,2721,larimer st,80205,denver,co,united states,
morton grove village administration,6101,capulina ave,60053,morton grove,il,,
little river healthcare,1700,brazos ave,76567,rockdale,tx,,
longy school of music,27,garden st,,cambridge,,,
,1013,main street,02893,"west warwick,",ri,,
,314,mulgrave road,4870,cairns,queensland,australien,
the museum of natural and cultural history,1680,e. 15th ave.,97403,eugene,or,united states,
,1219,n 8th st,54880,superior,wisconsin,,
brooksville country club,23446,links dr,34601,brooksville,fl,,
,87,sint-jacobsnieuwstraat,9000,ghent,east flanders,bỉ,
landhotel tannenhof,27,auf der list,94518,spiegelau,bavaria,germany,
hotel barcelona center,103-105,,08008,barcelona,,españa,
hyperion hotel salzburg,4,rainerstrasse,5020,salzburg,salzburg,österreich,
bären-apotheke bestenheid,3,leonhard-karl-str.,97877,wertheim - bestenheid,,deutschland,
thermal hotel harkány,1,járó józsef u.,7815,harkány,,,
monsoons,46,mitchell street,0800,darwin,nt,,
bauernladen lörrach obst- und gemüsehof schopferer (ehem. gretherhof roser),10,alte rheinfelderstrasse,79539,lörrach,,,
bernheim hall at the ben may main branch of mobile public library,701,government st,36602,mobile,alabama,,
h10 montcada boutique hotel,24,via laietana,08003,barcelona,,spain,
,7,the hyde,bn2 4je,brighton,england,united kingdom,
des moines gospal chapel,21914,7th ave. s.,98198,des moines,,united states,
,13,rue du moulin,03370,saint-désiré,,,
european repairs,32,rawson st,12206,albany,ny,us,us
nothing bundt cakes,,,63010,arnold,missouri,,
,21,nagy ignac utca,,budapest,budapest,hungría,
,4916,plank road,22959,north garden,va,united states,
wog,57-а,ул. василия стуса,,львов,,,
,7500,memorial parkway sw,35802,huntsville,alabama,,
arcana: books on the arts,8675,washington blvd.,90232,culver city,ca,,
"braton, kelly - counseling associates inc",110,skyline dr,72801,russellville,ar,us,us
zarząd główny z.n.p. ośrodek wypoczynkowy świteź,34,1 maja,58-580,szklarska poręba,,polska,
lyndon house arts center,211,hoyt st.,30601,athens,ga,united states,
bikemenorca,44,av.francesc femenias,,mahón,,es,es
bedford court,3701,international drive,20906,silver spring,md,,
,411,west bay street,31401,savannah,georgia,estados unidos,
pine crest school,2700,st andrews blvd,33434,boca raton,florida,united states,
bilotta kitchen & home,564,mamaroneck avenue,10543,mamaroneck,ny,us,us
,8656,colesville road,20910,silver spring,md,,
autohaus bleuel gmbh,1,visteonstr.,50170,kerpen,,germany,
dom zdravlja jagodina,4,karađorđeva,,jagodina,,serbia,
,1,am safaripark,29693,hodenhagen,,,
barrák,595/1,fügnerova,,ostrava,,,
bakker nijboer bouwmaterialen,25,steenhouwer,9502ev,stadskanaal,,nederland,
,1,bay st broadway,,broadway,,,
zum erbgericht,8,am markt,01833,stolpen,sachsen,deutschland,
independent financial golden,16800,w. colfax ave.,80401,golden,co,us,us
instituto nacional de seguridad y salud en el trabajo (insst),73,c/ torrelaguna,28027,madrid,madrid,es,es
,22,winklerstr.,09113,chemnitz,chemnitz,de,de
,95,via bure vecchia nord,51100,pistoia,,it,it
st. george lycabettus hotel,2,kleomenous,106 75,athens,tirane,gr,gr
premiere classe rungis - orly,18,rue du pont des halles,91450,rungis,val-de-marne,france,
st. stephens-in-the-field episcopal church,7269,santa teresa blvd,95139,san jose,écosse,united states,
,103,boulevard des etats,03200,vichy,,france,
,110,e. 2nd st,74103,tulsa,ok,united states of america,
cvs pharmacy,3130,queens chapel road,20782,hyattsville,md,,
east belmont church of god,320,catawba st,28012,belmont,,united states,
sparkasse kulmbach-kronach geschäftsstelle stockheim,6a,kronacher str.,96342,stockheim,,,
"sonnen-apotheke kurt walbe, inh. britta lensing e. k.",79,hömerichstr.,51643,gummersbach,,deutschland,
"zeugheersaal - hotel schweizerhof, zeugheersaal",3,schweizerhofquai,6002,luzern,,ch,ch
holiday inn seattle downtown - lake union,211,dexter avenue north,98109,seattle,washington,yhdysvallat,
,3640,pine ridge road,34109,naples,fl,united states,
mast general store asheville,15,biltmore ave,28801,asheville,nc,us,us
kijów.centrum (dawne kino kijów),34,al. krasińskiego,30-101,kraków,,polska,
,909,fulton st. se,55455,minneapolis,minnesota,united states,
houston lake country club,100,champions way,31069,perry,ga,us,us
super 8 by wyndham mcdonough ga,1171,hampton road,30253,mcdonough,georgia,estados unidos,
,2330,e moreland blvd.,53186,waukesha,wisconsin,us,us
,4,władysława jagiełły,32-600,oświęcim,małopolskie,,
hotel marais grands boulevards,112,boulevard de sebastopol,75003,parís,,francia,
,63,żywiecka,43-300,bielsko-biała,,polska,
,215,rio vermelho,41940360,salvador,,br,br
,5,rue violette,84000,avignon,,france,
,3855,ambrosia st,80109,castle rock,colorado,,
gc den egger,74,august nihoulstraat,3270,scherpenheuvel-zichem,,belgië,
spilimbergo – scuola mosaicisti del friuli,6,via corridoni,33097,spilimbergo,pordenone,italia,
investment realty inc,1703,n bishop avenue,65401,rolla,mo,,
the devil's triangle,2027,westlake ave,98121,seattle,wa,,
,11,kisdorfer weg,24568,kaltenkirchen,schleswig-holstein,germany,
,81,vorhelmer straße,59269,beckum,,de,de
,,,90342,umeå,,,
,4,grootzand,8601 aw,sneek,,netherlands,
,11,vía emilio ortuño,03501,benidorm,alicante,es,es
ostello olimpico vicenza,7,viale antonio giuriolo,,vicenza,vicenza,italia,
,70,boston turnpike,01545,shrewsbury,ma,,
vieux-couvent de saint-prime,614,rue principale,g8j 1t4,saint-prime,qc,schweiz,
springhill suites by marriott atlanta alpharetta,12730,deerfield parkway,30004,alpharetta,georgia,united states,
sailfish club,1338,n lake way,33480,palm beach,fl,united states,
,1,rue saint-pierre,60410,verberie,nord-pas-de-calais picardie,fr,fr
carver middle school,3325,w. battlefield road,65807,springfield,mo,,
,4529,west ocotillo road,85301,glendale,az,us,us
church of the transfiguration,4325,jarvis avenue,95118,san jose,ca,united states,
,1420,s. figueroa st,90015,los angeles,ca,,
omni san francisco hotel,500,california street,,san francisco,ca,,
,45,calle arabial,18004,granada,andalucía,es,es
,2151,peachford road,30338,atlanta,ga,,
hyatt place chicago/river north,66,west illinois street,60654,chicago,ilinóis,estados unidos,
,460,doyle ave,v1y 2a2,kelowna,bc,canada,
motel 6 valdosta university,2003,west hill avenue,31601,valdosta,georgia,united states,
nob hill motor inn,1630,pacific avenue,94109,san francisco,kaliforniya,abd,
,1,postpl.,93142,maxhütte-haidhof,bayern,germany,
,40,westminster street,02903,providence,rhode island,,
salisbury zoo,755,s park dr,21804,salisbury,md,us,us
,245,hennepin ave.,55401,minneapolis,mn,,
,569,amherst st,03063,nashua,nh,us,us
holiday inn & suites beckley,114,dry hill road,25801,beckley,west virginia,united states,
,1055,via tuscolana,00173,rome,,italy,
,12,keldersstrasse,42697,solingen,,de,de
market station,240,w 2nd street,64105,kansas city,mo,spanien,
staples ancaster store 59,1015,golf links road,,hamilton,on,ca,ca
north point blvd - m&t bank,5236,n point blvd,21219,sparrows point,md,,
,191,collins street,3000,melbourne,tirane,,
city taxi,36 a,koblenzer straße,53498,bad breisig,,,
,7,affinger str.,86167,augsburg,,de,de
sonic drive-in,602,market st north,24630,tazewell,va,us,us
the pickwick hotel,85,5th street,94103,san francisco,kalifornia,yhdysvallat,
public storage - merriam - 7100 w frontage road,7100,w frontage road,66203,merriam,ks,,
hotel don paco,53,salitre,29002,málaga,andalucía,españa,
,12-14,,4761 jk,zevenbergen,north brabant,netherlands,
,520,southwest broadway,97205,portland,oregón,estados unidos,
,38,rue du midi,58000,nevers,bourgogne,france,
,17,hauptstr.,35614,aßlar,aßlar,de,de
de swarte ruijter,7,holterbergweg,,holten,,niederlande,
ace hotel seattle,2423,1st avenue,98121,seattle,washington,mỹ,
,11,calle pez volador,28007,馬德里,,西班牙,
kaiser permanente addiction medicine and recovery servs,380,west macarthur boulevard,94609,oakland,ca,,
park mazda,983,fir street,t8a 4n5,sherwood park,ab,canada,
żabka,56,fryderyka chopina,96-503,sochaczew,mazowieckie,pl,pl
,706,east 300 south,84102,salt lake city,utah,usa,
,102,hüttenstraße,40215,40215 düsseldorf,,,
,24,rue malaveille,82200,moissac,,france,
,1,place du beffroi,,millau,,france,
,3200,calumet avenue,46383,valparaiso,indiana,,
,,,94589,vallejo,ca,,
,92,huttenstraße,06110,halle,,de,de
,2325,cerrillos rd,87505,santa fe,nm,,
taverna kirschbaum „kerasia“,105,unterfürberger str.,,fürth,,,
hyatt regency düsseldorf,19,speditionstr.,40221,düsseldorf,north rhine-westphalia,đức,
independence chamber of commerce,210,w. truman rd.,64050,independence,mo,united states,
courtyard fort lauderdale beach,440,seabreeze boulevard,33316,fort lauderdale,florida,ee. uu.,
,8,valley street,03103,manchester,new hampshire,,
институт традиционной восточной медицины,18,филипповский пер.,,москва,,,
hotel palazzo grillo,4,piazza delle vigne,16123,genoa,genoa,italy,
bodega cava de cano,2488,san martín,,luján de cuyo,,,
hilton miami airport blue lagoon,5101,blue lagoon drive,33126,miami,fl,united states,
,801,shipyard drive,19801,wilmington,de,us,us
,4330,west irving park road,60641,chicago,illinois,,
,33,boulevard carnot,49100,angers,maine-et-loire,france,
st.thomas of aquinas church,2725,elm st,94558,napa,ca,united states,
the buddy holly hall of performing arts and sciences,1300,mac davis ln,79401,lubbock,tx,united states,
the alpina gstaad,23,alpinastrasse,3780,gstaad,bern,suíça,
,136,emeryville drive,16066,cranberry twp.,pa,,
greer,111,trade street,29651,greer,sc,us,us
the fox and vivian leamington spa,32,clarendon avenue,cv32 4rz,royal leamington spa,,gb,gb
rathaus eppingen,1,marktplatz,75031,eppingen,,,
impact academy of arts and technology,2560,darwin street,94545,hayward,ca,,
,1,deforest ave,07078,summit,new jersey,united states,
calvary chapel tri-cities,10611,w. clearwater ave,99336,kennewick,wa,us,us
,500,ala moana blvd,96813,honolulu,hi,us,us
atria bay shore,53,ocean avenue,11706,bay shore,ny,,
entrada,453,13th street,92101,san diego,ca,,
"cardiel cannabis - sunland park, nm 88063",1685,mcnutt rd,88063,sunland park,nm,us,us
"candlewood suites macon, an ihg hotel",3957,river place drive,,macon,,us,us
,13429,interstate 20 w,75706,tyler,tx,,
,5,hugenottenplatz,91054,erlangen,bayern,de,de
boston pizza,2500,box springs blvd nw,t1c 0c8,medicine hat,ab,,
hotel metropol by maier privathotels,7,mittererstraße,80336,münchen,bayern,deutschland,
,30,zum suhrfeld,21220,seevetal-ohlendorf,niedersachsen,,
,107,merseburger straße,04177,leipzig,sachsen,deutschland,
,391,north main street,03784,lebanon,nh,united states,
thrifty,8,bildshofdi,110,reykjavik,capital region,iceland,
,4076,east avenue,94550,livermore,ca,,
,2550,w union hills dr,85027,phoenix,az,usa,
peters jens,65,bahnhofstr.,25782,tellingstedt,,,
hard rock hotel davos,2,tobelmühlestrasse,7270,davos,grisonia,suiza,
,2,watermolenweg,4191,geldermalsen,gelderland,niederlande,
buffalo wild wings,5275,va-7 b,22041,bailey's crossroads,virginia,united states,
west towne clinic urgent care clinic,7102,mineral point rd,53717,madison,wisconsin,,
,44,kleine houtstraat,2011 dn,haarlem,,netherlands,
,744,san antonio road,94303,palo alto,ca,,
,2400,sw golden bear way,34990,palm city,fl,,
,552,columbia st,v3l 1b1,new westminster,bc,,
restaurant l’escale gourmande,44,grande rue,25170,recologne,,,
,909,3rd street,95814,薩克拉門托,加利福尼亞州,美國,
the colony hotel,140,ocean avenue,04046,kennebunkport,maine,united states,
,145,schulenburger landstr.,30165,hannover,niedersachsen,de,de
online pharmacy scam | cottonwood tucson,4110,west sweetwater drive,85745,tucson,az,us,us
radisson hotel fort worth north-fossil creek,2540,meacham boulevard,76106,fort worth,texas,united states,
enoch turner schoolhouse,106,trinity st,,toronto,on,ca,ca
,4,steinerkirchner straße,4642,sattledt,,,
,10,jázmin u.,1083,budapest,vt,,
byron police department,232,west 2nd street,61010,byron,il,us,us
,82,oceanport ave,07739,little silver,nj,usa,
classic hotel,61,rruga sulejman delvina,1022,tirana,tirane,albania,
park grand london heathrow,449,great west road,tw5 0bu,hounslow,england,united kingdom,
,759,columbia turnpike,12061,east greenbush,new york,,
‪hotel restaurant kugel‬,17,kirchenstr.,54294,‪trier‬,راينلاند بالاتينات,ألمانيا,
hard rock hotel and casino,777,west cherokee street,74015,catoosa,ok,,
hotel la rosetta,19,piazza italia,06121,perugia,perugia,italia,
edward carter funeral director,15,newbury street,ox12 8bu,wantage,,uk,uk
broadmoor world arena,3185,venetucci blvd.,80906,colorado springs,co,us,us
,77,warren street,02135,brighton,ma,,
"weingut peter stübinger, leinsweiler",12,hauptstraße,76829,leinsweiler,,,
,3414,governors dr sw,35805,huntsville,al,,
best western plus  port of camas-washougal convention center,121,s 2nd street,98671,washougal,,united states,
,24,via luciano morganti,20099,sesto san giovanni,,,
,2919,n. litchfield rd.,85395,goodyear,az,,
,12,viale vittorio emanuele ii,24121,bergamo,lombardia,,
exchange,72-73,old market,bs2 0ej,bristol,,,
brooksville country club,23446,links drive,34601,brooksville,fl,united states,
wähling jan bestattungsinstitut,10,kuhberg,25355,barmstedt,,,
,1,anni-albers-platz,,bottrop,bottrop,,
,1,industriestraße,92360,mühlhausen,bayern,de,de
,22,kaiserstraße,90403,νυρεμβέργη,bavaria,γερμανία,
life storage,700,mountain rd,06010,bristol,connecticut,usa,
days inn by wyndham batavia oh,2188,winemiller lane,45103,batavia,oh,us,us
,8349,folsom blvd,95826,sacramento,ca,us,us
pane bianco central,4404,n central ave,85012,phoenix,az,us,us
,3250,clear lake ave,62702,springfield,il,us,us
royal room,5000,rainier ave s,98118,seattle,wa,united states,
atisha cocktail & shisha lounge,5,an der münze,41460,neuss,nordrhein-westfalen,,
hotel holiday thun,1,gwattstrasse,3604,thun,,,
pangea groves,5018,lemans dr,,indianapolis,zh,,
,35,montauk highway,11968,southampton,new york,,
,333,hempstead ave # b,11565,malverne,ny,usa,
american airlines center,2500,victory ave.,75219,dallas,tx,us,us
meijer sandusky,4702,milan rd,44870,sandusky,oh,,
,27,carrer cervantes,07820,san antonio de portmany,ibiza,españa,
,1419,w pine st,99362,walla walla,wa,,
,265,parramatta road,2144,auburn,,au,au
,198,central ave,10607,white plains,ny,united states of america,
,4,richard-bullinger-straße,73525,schwäbisch gmünd,bw,de,de
,165,capitol avenue,06106,hartford,connecticut,,
temple sinai,1,community rd.,01945,marblehead,ma,united states,
best western la place inn,4289,main st,70068,laplace,louisiane,états-unis,
premier inn freiburg city süd hotel,19,heinrich-von-stephan-straße,79100,freiburg,baden-württemberg,deutschland,
,191,queens road,ng9 2bz,nottingham,nottinghamshire,gb,gb
noz - pamiers,11,rue andré citroën,09100,pamiers,,,
,23,tesselschadestraat,1054 et,", amsterdam",noord-holland,nl,nl
,7,rue de la chaine,67000,strasbourg,bas-rhin,pháp,
comfort inn dekalb adjacent the un,1314,west lincoln highway,60115,dekalb,il,us,us
,39,seestrasse,8700,küsnacht,,ch,ch
jacklin arts & cultural center,405,north william street,83854,post falls,idaho,us,us
,1661,w henderson st,76033,cleburne,tx,,
calypso theater,4,markt,,wijk bij duurstede,,netherlands,
city of newton - public schools - administrative offices education center - accounts payable,100,walnut st,,newton,ma,,
,8,landshuter str.,84061,ergoldsbach,bayern,de,de
weingut waalem,11,grevelingstieg,25938,nieblum,,deutschland,
,7840,firestone blvd,90241,downey,california,us,us
schloss brunnwald,5,brunnwald,4191,vorderweißenbach,,,
,48-52,faulenstraße,28195,bremen,,,
cross insurance,1100,elm street,03101,manchester,nh,,
gulf remda-teichel,2,hauptstr.,07407,rudolstadt,,,
the new school,66,west 12th street,10011,new york,ny,us,us
,519,division street south,55057,northfield,minnesota,united states,
,2155,w colonial dr,32804,orlando,fl,usa,
tulane university,6823,st. charles avenue,70118,new orleans,la,,
torre al sur hostel,855,gobernador felix paz,9410,ushuaia,tierra del fuego,argentina,
,6,eckenweiherstrasse,75417,mühlacker,,,
national museum of mexican art,1852,w 19th st,60608,chicago,il,united states,
,,,91201,glendale,california,usa,pl
copythek ankele | copyshop siegen,23,glückaufstr.,57076,siegen,,,
,12,lederergasse,9500,villach,,,
,2,industriestr.,07937,zeulenroda-triebes,,,
,2525,fort campbell blvd,42240,"hopkinsville,",ky,,
jfk university medical center,65,james st,08820,edison,nj,,
fair play casino maarssen,29,kaatsbaan,3601eb,maarssen,utrecht,nederland,
,9,de flinesstraat,1114 al,amsterdam,noord holland,nederland,ru
,4,siemensstraße,97616,bad neustadt an der saale,bayern,de,de
,257,trojan rd,24572,madison heights,va,,
malloy ford,2070,seminole trl,22901,charlottesville,va,,
,10402,sepulveda blvd,91345,mission hills,ca,,
,1,wohnpark kreuz,78073,bad dürrheim,,,
,811,n 8th st,53081,sheboygan,wi,united states,
,28,neustadt,35390,gießen,,,
les chambons,37,rue des chambons,36200,argenton-sur-creuse,,fr,fr
office martinet hugues - chambéry,24,rue commandant perceval,73000,chambéry,,,
,3,via gerolamo borgazzi,20900,monza,monza e brianza,it,it
avis,501,south 20th street,68102,omaha,nebraska,yhdysvallat,
,64,gedempte zuiderdiep,,groningen,,nl,nl
saint john evangelical lutheran church,200,south main street,50616,charles city,,united states,
,16724,juanita dr ne,98028,kenmore,washington,usa,
holiday inn express baltimore-bwi airport west,7481,ridge road,21076,hanover,maryland,united states,
museum of modern art,11,west 53rd st,10019,new york,victòria,united states,
albergo ristorante belvedere,3,vicolo san giovanni,12046,monta,,italia,
toppling goliath brewing co,1600,prosperity rd,52101,decorah,ia,,
watsonia barbershop,91,watsonia road,3087,banyule city,victoria,yhdysvallat,
geraldton primary school,75,fitzgerald st,6530,geraldton,wa,au,au
,13,gottlieb-daimler-str.,35440,linden,,de,de
,13,olivedalsgatan,413 10,göteborg,,sverige,
avalon cove,444,washington blvd,,jersey city,,,
metro charter academy,34800,ecorse road,48174,romulus,mi,,
,4343,kellogg ave,45226,cincinnati,oh,united states of america,
,136,central road,kt4 8ht,worcester park,,,
divadlo alfa,174/7,rokycanská,,plzeň,,,
mountain island day school,1209,little rock road,28214,charlotte,nc,,
,,ul. młynarska,01-205,warszawa,warszawa,polska,
olivia six,472 d,aleja grunwaldzka,80-309,gdańsk,pomeranian voivodeship,pl,pl
,128,alter postweg,26133,oldenburg,niedersachsen,de,de
seminole hard rock hotel & casino - tampa,5223,orient rd,33610,tampa,fl,the netherlands,uk
herbert meder schule unsleben,2,ringstraße,97618,unsleben,,,
guess road baptist church,3102,guess rd.,27705,durham,,united states,
hotel urban dream nevada,3,c/ benjamin franklin,18100,armilla,,españa,
great fortune,443,n. main st.,22482,kilmarnock,virginia,svezia,
museumshof silstedt,4a,am plan,38855,wernigerode,,,
st. sophia hellenic orthodox church,200,hempstead street,06320,new london,,united states,
brauhaus castel,27,otto-suhr-ring,55252,mainz kastel,,deutschland,
,718,n. grand blvd.,63103,st. louis,mo,états-unis,
jasmine asian cuisine,3618,concord pike,19803,new castle county,delaware,united states,
,222,west avenue,,austin,אנדלוסיה,,
"husqvarna bei lagerhaus, obere hauptstraße 84",84,obere hauptstraße,2151,asparn/zaya,,,
,1520,s 2nd street,98273,mount vernon,wa,,
city of midwest city - customer service - director - building inspections division - bldg & construction inspection electrical,100,n midwest blvd,,oklahoma city,ok,,
new china restaurant,337,e state street,44601,alliance,oh,,
beethoven hotel dreesen - furnished by boconcept,17,bonngasse,53111,bonn,north rhine-westphalia,germany,
motos exup,20,c/ monjitas,28220,majadahonda,,es,es
mercure hotel amersfoort centre,20,de nieuwe poort,3812 pa,amersfoort,,,
team cymru,901,international parkway,32746,lake mary,fl,us,us
,24000,rampart blvd.,33980,port charlotte,fl,united states,
,240,s main st,3894,wolfeboro,nh,usa,
dark moon tattoo and piercing,11426,n cave creek rd,85020,phoenix,az,,
silver spring library,900,wayne avenue,20910,silver spring,md,united states,
,36,łopuszańska,02-220,warszawa,,polska,
,13,moniuszki,86-300,grudziądz,kujawsko-pomorskie,,
schloz wöllenstein gmbh & co.kg,58,dresdner str.,09599,freiberg,,de,de
,23,stradomska,33-332,kraków,województwo małopolskie,pl,pl
halstenbek,1,friedrichshulder weg,25469,halstenbek,,deutschland,
,2501,kettner blvd.,92101,san diego,ca,united states of america,
,39,holzener str.,58708,menden (sauerland),nw,de,de
,512,rua pernambuco,13940-000,águas de lindóia,são paulo,brasil,
,207,e grand river ave,48843,howell,mi,,
"action, industriestraße 33 - 37",33 37,industriestraße,27570,bremerhaven,,美国,nl
,13,hinter dem rahmen,26721,emden,,,
hershey theatre,15,e caracas ave,17033,hershey,pa,us,us
tru by hilton sumter sc,2607,broad street,29150,sumter,sc,us,us
,142,joe orr road,60411,chicago heights,illinois,estados unidos,
hotel san martino,28,via san martino,25047,darfo boario terme,,italien,
basilico auto e moto concessionaria & officina,35,via zara,20821,meda,,,
tauber-solar,7,siemensstraße,97941,tauberbischofsheim,baden-württemberg,deutschland,
the plaza live,425,n bumby ave,32803,orlando,fl,us,us
ramada by wyndham suites orlando airport,7500,augusta national drive,32822,orlando,florida,usa,
regency isle #609,29348,perdido beach boulevard,36561,orange beach,al,us,us
купить загородную недвижимость в микрорайоне вторчермет в городе екатеринбург,,,,екатеринбург,свердловская область,,
moore funeral service - purvis,706,main st.,39475,purvis,,united states,
,8,linnéplatsen,413 10,gotemburgo,västra götaland,suecia,
holiday inn express & suites albuquerque historic old town,2300,12th street northwest,87104,albuquerque,new mexico,mỹ,
hotel puerta américa,41,avenida de américa,,madrid,madrid,,
mosaic – boundary,5575,boundary road,v5r 2p9,vancouver,british columbia,,
kurpark velden,,,9220,velden am wörthersee,,at,at
mears automotive - carmel,377,west carmel dr,46032,carmel,in,us,us
ford amphitheater - colorado springs,95,spectrum loop,80921,colorado springs,co,us,us
terworm castle,5,terworm,6411 rv,heerlen,,pays-bas,
,2,güderott,24392,boren,,de,de
,27a,donkersteeg,9000,gent,,,
skyline high school,2552,n maple rd,48103,ann arbor,mi,us,us
public storage,3280,e chandler heights rd,85298,gilbert,az,us,us
,61,kientenstr.,72458,albstadt,,,
villa sinnenreich,19,bahnhofstraße,4150,rohrbach-berg,oberösterreich,österreich,
,7,koningin astridlaan,8400,ostend,west flanders,bỉ,
,35,west common,rh16 2aj,haywards heath,west sussex,gb,gb
,12412,judson road,78233,san antonio,texas,,
the bruce guthro theatre at casino nova scotia,1983,upper water street,b3j 3y5,halifax,ns,ca,ca
,1,händelstraße,97469,gochsheim,bayern,de,de
elmwood-murdock,300,wyoming st,68407,murdock,ne,us,us
,2,bahnhofstraße,51597,morsbach,,,
noel martinez - chase home lending advisor - nmls id 404667,597,south meadows parkway,89521,reno,nv,us,us
,3605,vestal parkway east,13850,vestal,,ee. uu.,
,6060,n central expy.,75206,dallas,tx,united states,
hyatt centric wall street,75,wall street,10005,new york,new york,mỹ,
gateway classic cars of indianapolis,4400,west 96th street,46268,indianapolis,in,,
rewe,74,elsaesser str.,66271,kleinblittersdorf,,,
,34a,hospitalstraße,01471,radeburg,sachsen,de,de
super 8 by wyndham newport news/jefferson ave.,6105,jefferson avenue,23605,newport news,virginia,united states,
prince of peace catholic church,621,cedar road,23322,chesapeake,,united states,
apartments amalfi design sea view,22,via annunziatella,,amalfi,amalfi,italy,
,36,e 2nd st,54880,superior,wi,,
hotel finn,3 b,kalevankatu,,helsinki,uusimaa,finland,
premier inn london tolworth,12,kingston road,kt5 9nu,londres,,royaume-uni,
,3,bürgermeister-böhmer-straße,96264,altenkunstadt,,de,de
comfort inn memphis downtown,100,north front street,38103,memphis,tennessee,abd,
,200,w. hanley ave.,83815,coeur d'alene,id,,
zum landwirt,41,argentalstraße,88069,tettnang,baden-württemberg,deutschland,
manège militaire voltigeurs de québec – mmvq,805,avenue wilfrid-laurier,g1r 2l3,québec,qc,đức,
,36,friedrichstr.,,marburg,,,
ibis styles kingsgate,131,king street,3000,melbourne,victoria,úc,
pine grove animal hospital,18320,cottonwood dr # k,80138,parker,,united states,
,1510,s. main st,89104,las vegas,nv,united states of america,
myth live parking lots,3090,southlawn drive,55109,maplewood,minnesota,usa,
